"id","name","country","city","website","phone","email","address","created_by","updated_by","created_at","updated_at"
"1025","Globus Ltd.","UK","14, Central Park, Mosley Road, Trafford Park, M17 1NY Manchester"," http://www.alphasolway.com","441618774747","sales@globus.co.uk","Globus Ltd.
14, Central Park, Mosley Road, Trafford Park, M17 1NY Manchester
United Kingdom","Anjali",NULL,"2025-06-25 14:13:19","2025-06-25 14:13:19"
"1026","Midas Safety Inc.","Canada","255 Duncan Mill Road, Suite 904,, M3B 3H9 Toronto, ON"," http://www.midassafety.com","14164479040268","midas@midassafety.com","Midas Safety Inc.
255 Duncan Mill Road, Suite 904,, M3B 3H9 Toronto, ON
Canada","Anjali",NULL,"2025-06-25 14:13:19","2025-06-25 14:13:19"
"1027","Protos GmbH","Austria","6842 Koblach","protos.at ","435576982480","office@protos.at","Protos GmbH 
Herrschaftswiesen 11 
6842 Koblach, Austria","Anjali",NULL,"2025-06-25 14:13:19","2025-06-25 14:13:19"
"1028","Tecnologia Deportiva S.A.","Spain","03360 Callosa de Segura (Alicante)","leondeoro.com ","34965311764","leondeoro@leondeoro.com","Tecnologia Deportiva S.A. 
Ctra. de Catral KM 2 
03360 Callosa de Segura (Alicante), Spain
P.O. Box 118
03360 Callosa de Segura (Alicante), Spain","Anjali",NULL,"2025-06-25 14:13:19","2025-06-25 14:13:19"
"1029","Polygraphic International B.V.","Netherlands","3433 PE Nieuwegein","polygraphic.com ","31306006050","info@polygraphic.com","Polygraphic International B.V. 
Groningenhaven 28 
3433 PE Nieuwegein, Netherlands","Anjali",NULL,"2025-06-25 14:13:19","2025-06-25 14:13:19"
"1030","TEXPORT Handelsgesellschaft m.b.H.","Austria","5020 Salzburg","texport.at ","43662423244","office@texport.at","Texport Funktionsbekleidung GmbH 
Franz-Sauer-Str. 30 
5020 Salzburg, Austria","Anjali",NULL,"2025-06-25 14:13:19","2025-06-25 14:13:19"
"1031","Veiligheidstechniek Nederland B.V.","Netherlands","5342 LX Oss","vtn.nl ","31412695555","info@vtn.nl","Veiligheidstechniek Nederland B.V. 
Ijzerweg 67 
5342 LX Oss, Netherlands
P.O. Box 169
5340 AD Oss, Netherlands","Anjali",NULL,"2025-06-25 14:13:19","2025-06-25 14:13:19"
"1032","ALSICO N.V.","Belgium","9600 Ronse","alsico.com ","3255237171","info@alsico.com","ALSICO N.V. 
Zonnestraat, 223/229 
9600 Ronse, Belgium","Anjali",NULL,"2025-06-25 14:13:19","2025-06-25 14:13:19"
"1033","Ansell Healthcare Europe N.V.","Belgium","1070 Brussel","ansell.eu ","3225287400","info@ansell.com","Ansell Healthcare Europe N.V. 
Riverside Business Park, Block J Boulevard International 55
1070 Brussel, Belgium","Anjali",NULL,"2025-06-25 14:13:19","2025-06-25 14:13:19"
"1034","APEGO SRL","Italy","27024 Cilavegna (Pv)","apego.it ","39038196301","info@apego.it","APEGO SRL 
Via Gravellona 98 
27024 Cilavegna (Pv), Italy","Anjali",NULL,"2025-06-25 14:13:19","2025-06-25 14:13:19"
"1035","ARDON SAFETY s.r.o.","Czech Republic","750 02 Prerov I Mesto","ardon.cz ","420581250072","kovarova@ardon.cz","ARDON SAFETY s.r.o. 
Trzni ul. 2902/14 
750 02 Prerov I Mesto, Czech Republic","Anjali",NULL,"2025-06-25 14:13:19","2025-06-25 14:13:19"
"1036","Bongiorno Antinfortunistica SRL","Italy","24035 Curno (BG)","kappa4work.it ","39035693777","info@kappa4work.it","Bongiorno Antinfortunistica SRL 
Via E. Fermi, 10 
24035 Curno (BG), Italy","Anjali",NULL,"2025-06-25 14:13:19","2025-06-25 14:13:19"
"1037","C. Igena S.A","SPAIN","VILASSAR DE DALT, BARCELONA"," http://www.igena.com","34937531711","info@igena.com","C. Igena S.A
Rafael Riera Prats, 61, 08339 Vilassar de Dalt, Barcelona
Spain","Anjali",NULL,"2025-06-25 14:13:19","2025-06-25 14:13:19"
"1038","C.A.M.P. SpA","Italy","23834 Premana (LC)","camp.it ","390341890117","nando.curtoni@camp.it","C.A.M.P. SpA 
Via Roma 23 
23834 Premana (LC), Italy","Anjali",NULL,"2025-06-25 14:13:19","2025-06-25 14:13:19"
"1039","Calzados Robusta S.L.","Spain","26580 Arnedo (La Rioja)","robusta.es ","34941385411","maria_export@robusta.es","Calzados Robusta S.L. 
Ctra. de Prejano, 72 Pol. Ind. Planaressano
26580 Arnedo (La Rioja), Spain
P.O. Box 103
26580 Arnedo (La Rioja), Spain","Anjali",NULL,"2025-06-25 14:13:19","2025-06-25 14:13:19"
"1040","Canis Safety a.s.","Czech Republic","735 41 Petrvald","canis.cz ","420599529647","info@canis.cz","Canis Safety a.s. 
U Tesly 1825 
735 41 Petrvald, Czech Republic","Anjali",NULL,"2025-06-25 14:13:19","2025-06-25 14:13:19"
"1041","Carabelli srl","ITALY","GAGGIANO (MI)"," http://www.carabelli-italy.com","39029085882","info@carabelli-italy.it","Carabelli srl
Via del Lavoro 3, 20083 Gaggiano (MI)
Italy","Anjali",NULL,"2025-06-25 14:13:19","2025-06-25 14:13:19"
"1042","Cerva Group a.s.","Czech Republic","252 61 Jenec","cerva.com ","420257950950","export@cerva.com","Cerva Group a.s. 
Prologis Park Prague - Airport Hala DC2 Prumyslova 483
252 61 Jenec, Czech Republic","Anjali",NULL,"2025-06-25 14:13:19","2025-06-25 14:13:19"
"1043","Clipper A/S","Denmark","7400 Herning","clippercorporatewear.dk ","4596263200","ccw@clipper.dk","Clipper A/S 
Nakskovvej 1 
7400 Herning, Denmark [incl. Greenland]","Anjali",NULL,"2025-06-25 14:13:19","2025-06-25 14:13:19"
"1044","DIKAMAR S.A. Industria de Proteccao de Calcado","Portugal","Parque Industrial Manuel da Mota,Lote 29, Rua Pedro Alvares Cabral, 3100-440 Pombal"," http://www.dikamar.com","3511236244580","geral@dikamar.com","DIKAMAR S.A. Industria de Proteccao de Calcado
Parque Industrial Manuel da Mota,Lote 29, Rua Pedro Alvares Cabral, 3100-440 Pombal
Portugal","Anjali",NULL,"2025-06-25 14:13:19","2025-06-25 14:13:19"
"1045","DIKE SRL","ITALY","BAGNOLI DI SOPRA"," http://www.dike.works","390499579761","info@dike.works","DIKE SRL
Viale dell' Industria 4, 35023 Bagnoli di Sopra
Italy","Anjali",NULL,"2025-06-25 14:13:19","2025-06-25 14:13:19"
"1046","ECC Couture BV","Netherlands","7575 EB Oldenzaal","giovannicapraro.com ","31541520500","mwissink@ecccouture.nl","ECC Couture BV 
Multatulistraat 8 
7575 EB Oldenzaal, Netherlands
P.O. Box 271
7570 AG Oldenzaal, Netherlands","Anjali",NULL,"2025-06-25 14:13:19","2025-06-25 14:13:19"
"1047","Fallprotec S.A.","Luxembourg","4959 Bascharage","fallprotec.com ","35226550930","grothe@fallprotec.com","Fallprotec S.A. 
43-45, ZA Op Zaemer 
4959 Bascharage, Luxembourg","Anjali",NULL,"2025-06-25 14:13:19","2025-06-25 14:13:19"
"1048","Faraone Industrie S.p.A.","Italy","64018 Tortoreto","faraone.com ","390861772221","info@faraone.com","Faraone Industrie S.p.A. 
via San Giovanni, 20 
64018 Tortoreto, Italy","Anjali",NULL,"2025-06-25 14:13:19","2025-06-25 14:13:19"
"1049","France Textile Production SAS","France","31770 Colomiers","north-ways.com ","33534528218","contact@north-ways.com","France Textile Production SAS 
Z.I. En Jacca 4 Chemin de Naudinats
31770 Colomiers, France","Anjali",NULL,"2025-06-25 14:13:19","2025-06-25 14:13:19"
"1050","Francital Environnement SAS","France","38301 Bourgoin-Jallieu","francital.com ","33474190710","contact@francital.com","Francital Environnement SAS 
25, Petite rue de la Plaine 
38301 Bourgoin-Jallieu, France
P.O. Box 80034
38301 Bourgoin-Jallieu, France","Anjali",NULL,"2025-06-25 14:13:19","2025-06-25 14:13:19"
"1051","Grisport S.p.A.","Italy","31030 Castelcucco (TV)","grisport.com ","390423962063","alessandro@grisport.it","Grisport S.p.A. 
Via Erega 1 
31030 Castelcucco (TV), Italy","Anjali",NULL,"2025-06-25 14:13:19","2025-06-25 14:13:19"
"1052","Harken Italy Spa","ITALY","LIMIDO COMASCO"," http://www.harkenindustrial.com","390313523511","info@harkenindustrial.com","Harken Italy Spa
Via Marco Biagi, 14, 22070 Limido Comasco
Italy","Anjali",NULL,"2025-06-25 14:13:19","2025-06-25 14:13:19"
"1053","Hellberg Safety AB","Sweden","Stakebergsvägen 2, 44396 Stenkullen"," http://www.hellbergsafety.com","4630224450","info@hellbergsafety.se","Hellberg Safety AB
Stakebergsvägen 2, 44396 Stenkullen
Sweden","Anjali",NULL,"2025-06-25 14:13:19","2025-06-25 14:13:19"
"1054","HighStep Systems AG","Switzerland","8953 Dietikon","highstepsystems.com ","41443714433","info@highstepsystems.com","HighStep Systems AG 
Silbernstr. 10 
8953 Dietikon, Switzerland","Anjali",NULL,"2025-06-25 14:13:19","2025-06-25 14:13:19"
"1055","Indutex S.p.A.","Italy","20011 Corbetta","indutexspa.com ","390297238711","info@indutexspa.com","Indutex S.p.A. 
Via S.Francesco 8/10 
20011 Corbetta, Italy
P.O. Box 63
20011 Corbetta, Italy","Anjali",NULL,"2025-06-25 14:13:19","2025-06-25 14:13:19"
"1056","Inuteq International B.V.","Netherlands","Zweedsestraat 19c, 7418 BG Deventer",,"3161416918",,"Inuteq International B.V.
Zweedsestraat 19c, 7418 BG Deventer
Netherlands","Anjali",NULL,"2025-06-25 14:13:19","2025-06-25 14:13:19"
"1057","Irudek 2000 S.L.","Spain","20400 Tolosa (Guipuzcoa)","irudek.com ","34943692617","irudek@irudek.com","Irudek 2000 S.L. 
Poligono Industrial Apatta, C/Baratzondo Naves C 14-18
20400 Tolosa (Guipuzcoa), Spain
P.O. Box 183
20400 Tolosa (Guipuzcoa), Spain","Anjali",NULL,"2025-06-25 14:13:19","2025-06-25 14:13:19"
"1058","Jolly Scarpe SpA","Italy","Via Feltrina Sud 172, 31044 Montebelluna (TV)"," http://www.jollyscarpe.com","390423666411","info@jollyscarpe.com","Jolly Scarpe SpA
Via Feltrina Sud 172, 31044 Montebelluna (TV)
Italy","Anjali",NULL,"2025-06-25 14:13:19","2025-06-25 14:13:19"
"1059","KERMEL SAS","France","68027 Colmar Cedex","kermel.com ","33389203690","info@kermel.com","KERMEL SAS 
20 Rue Ampere 
68027 Colmar Cedex, France","Anjali",NULL,"2025-06-25 14:13:19","2025-06-25 14:13:19"
"1060","KONG S.p.A.","Italy","23804 Monte Marenzo (LC)","kong.it ","390341630506","info@kong.it","KONG S.p.A. 
Via XXV Aprile, 4 
23804 Monte Marenzo (LC), Italy","Anjali",NULL,"2025-06-25 14:13:19","2025-06-25 14:13:19"
"1061","Kratos Safety SAS","France","69780 St- Pierre-de-Chandieu","kratossafety.com ","33472487827","info@kratossafety.com","Kratos Safety SAS 
4 rue de l'Aigue 
69780 St- Pierre-de-Chandieu, France","Anjali",NULL,"2025-06-25 14:13:19","2025-06-25 14:13:19"
"1062","LANZI srl","Italy","10148 Torino","lanzisafety.com ","390112284011","commerciale@lanzi.net","LANZI srl 
Via Giulio Natta 27a 
10148 Torino, Italy","Anjali",NULL,"2025-06-25 14:13:19","2025-06-25 14:13:19"
"1063","LEBEURRE SAS","FRANCE","QUERRIEU"," http://www.lma-lebeurre.com","33322403030","lma@lebeurre.com","LEBEURRE SAS
32, Route Nationale, 80115 Querrieu
France","Anjali",NULL,"2025-06-25 14:13:19","2025-06-25 14:13:19"
"1064","Lewer Calzature Techniche S.R.L.","Italy","84020 Colliano (SA)","lewer.it ","390828995520","info@lewer.it","Lewer Calzature Techniche S.R.L. 
Contrada Bagni 
84020 Colliano (SA), Italy","Anjali",NULL,"2025-06-25 14:13:19","2025-06-25 14:13:19"
"1065","Lyngsoe Rainwear ApS","Denmark","7400 Herning","lyngsoe-rainwear.dk ","4597214167","sales@lyngsoe-rainwear.dk","Lyngsoe Rainwear ApS 
Hammershusvej 1b 
7400 Herning, Denmark [incl. Greenland]","Anjali",NULL,"2025-06-25 14:13:19","2025-06-25 14:13:19"
"1066","Manulatex France SAS","France","49123 Champtoce sur Loire","manulatex.fr ","33241399030","info@manulatex.fr","Manulatex France SAS 
Z.A. du Mille 
49123 Champtoce sur Loire, France","Anjali",NULL,"2025-06-25 14:13:19","2025-06-25 14:13:19"
"1067","Master Lock Europe S.A.S.","France","92200 Neuilly sur Seine","masterlocksafety.de ","33141437200","safetyeu@mlock.com","Master Lock Europe S.A.S. 
131, avenue Charles de Gaulle 
92200 Neuilly sur Seine, France","Anjali",NULL,"2025-06-25 14:13:19","2025-06-25 14:13:19"
"1068","Melton A/S","DENMARK","VEJEN"," http://www.melton.as","4541121929","post@melton.as","Melton A/S
Aadalen 7D, 6600 Vejen
Denmark","Anjali",NULL,"2025-06-25 14:13:19","2025-06-25 14:13:19"
"1069","MILLA S.R.L","Italy","94017 Regalbuto","millasrl.it ","39093571144","info@millasrl.it","MILLA S.R.L 
Contrada Saverino S.N.C. 
94017 Regalbuto, Italy
P.O. Box 60
94017 Regalbuto, Italy","Anjali",NULL,"2025-06-25 14:13:19","2025-06-25 14:13:19"
"1070","Mille SAS","France","84350 Courthezon","gastonmille.com ","33490704074","welcome@gastonmille.fr","Mille SAS 
69 Rue Marcel Valerian P.A. de la Grange Blanche
84350 Courthezon, France","Anjali",NULL,"2025-06-25 14:13:19","2025-06-25 14:13:19"
"1071","Nettuno srl","Italy","24060 Castelli Calepio (BG)","nettuno.net ","39035847508","sales@nettuno.net","Nettuno srl 
Viale Industria, 16/18 
24060 Castelli Calepio (BG), Italy","Anjali",NULL,"2025-06-25 14:13:19","2025-06-25 14:13:19"
"1072","Optrel AG","SWITZERLAND","WATTWIL"," http://www.ornclothing.com","41 71 987 42 00","sales@orn-int.com","ORN CLOTHING PRIVATE LIMITED
1st Floor, Marina Annex Plot 34, Vikasbagh Ring Road, Vikasnagar, 226022 Lucknow
India","Anjali",NULL,"2025-06-25 14:13:19","2025-06-25 14:13:19"
"1073","Over Teak S.r.l.","Italy","70051 Barletta (BA)","uniwork.it ","390883346743",,"Over Teak S.r.l. 
Via dell´Unione Europea, 28 
70051 Barletta (BA), Italy","Anjali",NULL,"2025-06-25 14:13:19","2025-06-25 14:13:19"
"1074","PAB Akrapovic Ltd.","Croatia","52420 Buzet","pab.hr ","38552662662","info@pab-buzet.com","PAB Akrapovic Ltd. 
Most 26 
52420 Buzet, Croatia","Anjali",NULL,"2025-06-25 14:13:19","2025-06-25 14:13:19"
"1075","Productos CLIMAX, S.A.","Spain"," Barcelona","productosclimax.com ","34935621311","info@productosclimax.com","Productos CLIMAX, S.A. 
Polg. Inds. Sector Mollet C/ Llobregat, 1
08150 Parets del Valles, Barcelona, Spain
P.O. Box 84
08150 Parets del Valles, Barcelona, Spain","Anjali",NULL,"2025-06-25 14:13:19","2025-06-25 14:13:19"
"1076","RG Safety SAS","France","817, rue Nicephore Niepce, ZAC de la Fouillouse, 69800 Saint-Priest"," http://www.groupe-rg.com","3340472236905","communication@groupe-rg.com","RG Safety SAS
817, rue Nicephore Niepce, ZAC de la Fouillouse, 69800 Saint-Priest
France","Anjali",NULL,"2025-06-25 14:13:19","2025-06-25 14:13:19"
"1077","Rock Empire s.r.o.","Czech Republic","407 22 Benesov nad Ploucnici","rockempire.cz ","420412704168","amy.vesela@rockempire.cz","Rock Empire s.r.o. 
Nadrani 712 
407 22 Benesov nad Ploucnici, Czech Republic","Anjali",NULL,"2025-06-25 14:13:19","2025-06-25 14:13:19"
"1078","RSG Safety B.V.","Netherlands","5928 PW Venlo","rsgsafety.com ","31854870395","sales@rsgsafety.com","RSG Safety B.V. 
Marinus Dammeweg 38 
5928 PW Venlo, Netherlands","Anjali",NULL,"2025-06-25 14:13:19","2025-06-25 14:13:19"
"1079","Rudholm & Haak AB","Sweden","50464 Boras","functionalthinking.com ","4633231110","info@rudholm-hk.se","Rudholm & Haak AB 
Företagsgatan 34 
50464 Boras, Sweden
P.O. Box 1103
50111 Boras, Sweden","Anjali",NULL,"2025-06-25 14:13:19","2025-06-25 14:13:19"
"1080","SAFCO ITALIA Srl","ITALY","GUSSAGO (BS)"," http://www.saf-tex.com","390303733937","info@safcoitalia.net","SAFCO ITALIA Srl
Via Benedetto Castelli, 25064 Gussago (BS)
Italy","Anjali",NULL,"2025-06-25 14:13:19","2025-06-25 14:13:19"
"1081","Schoeller Textil AG","Switzerland","9475 Sevelen","schoeller-works.com ","41817860800","info@schoeller-works.com","Schoeller Textil AG 
Bahnhofstr. 17 
9475 Sevelen, Switzerland","Anjali",NULL,"2025-06-25 14:13:19","2025-06-25 14:13:19"
"1082","SFE International SAS","FRANCE","MALATAVERNE"," http://www.sf-electric.com","33475908700","export@sf-electric.com","SFE International SAS
815b chemin du Razas, ZI Les Plaines, 26780 Malataverne
France","Anjali",NULL,"2025-06-25 14:13:19","2025-06-25 14:13:19"
"1083","Shoes for Crews (Europe) Ltd.","Ireland","Shannon","sfceurope.com ","35361479200","gosia@sfceurope.com","Shoes for Crews (Europe) Ltd. 
4135 Atlantic Avenue Western Business Park
Shannon, Ireland","Anjali",NULL,"2025-06-25 14:13:19","2025-06-25 14:13:19"
"1084","Sicurpal S.r.l.","Italy","Via dei Mestieri 12, 41030 Bastiglia"," http://www.sicurpal.it","39059818179","amministrazione@sicurpal.it","Sicurpal S.r.l.
Via dei Mestieri 12, 41030 Bastiglia
Italy","Anjali",NULL,"2025-06-25 14:13:19","2025-06-25 14:13:19"
"1085","Siggi Group SPA","Italy","36030 San Vito di Leguzzano (VI)","siggigroup.it ","390445695500","info@siggigroup.it","Siggi Group SPA 
Via Vicenza 23 
36030 San Vito di Leguzzano (VI), Italy","Anjali",NULL,"2025-06-25 14:13:19","2025-06-25 14:13:19"
"1086","SIKA Footwear A/S","Denmark","7400 Herning","sikafootwear.dk ","4597211911","info@sikafootwear.dk","SIKA Footwear A/S 
HI-Park 301 
7400 Herning, Denmark [incl. Greenland]","Anjali",NULL,"2025-06-25 14:13:19","2025-06-25 14:13:19"
"1087","SINGING ROCK s.r.o.","Czech Republic","51401 Ponikla","singingrock.com ","420481585007","info@singingrock.com","SINGING ROCK s.r.o. 
Ponikla 317 
51401 Ponikla, Czech Republic","Anjali",NULL,"2025-06-25 14:13:19","2025-06-25 14:13:19"
"1088","SPASCIANI S.P.A.","Italy","21040 Origgio (VA)","spasciani.com ","39029695181","info@spasciani.com","SPASCIANI S.P.A. 
Via Saronnino 72 
21040 Origgio (VA), Italy","Anjali",NULL,"2025-06-25 14:13:19","2025-06-25 14:13:19"
"1089","Spirale S.r.l.","Italy","38050 Cinte Tesino (TN)","spirale.it ","390461591411","spirale@spirale.it","Spirale S.r.l. 
Via Nuova 9 
38050 Cinte Tesino (TN), Italy","Anjali",NULL,"2025-06-25 14:13:19","2025-06-25 14:13:19"
"1090","Steel Blue Europe (EMEA) BV","NETHERLANDS","ALMERE"," http://www.steelblue.com","31363030280","info.europe@steelblue.com","Steel Blue Europe (EMEA) BV
P.O. Box 140, 1500 EC Almere 
Witte Vrouwen 15, 1358 CD Almere
Netherlands","Anjali",NULL,"2025-06-25 14:13:19","2025-06-25 14:13:19"
"1091","Supermax Healthcare Ltd","UK","12-16, Titan Drive, PE1 5XN Peterborough"," http://www.aureliagloves.co.uk","441733615215","sales@supermax.co.uk","Supermax Healthcare Ltd
12-16, Titan Drive, PE1 5XN Peterborough
United Kingdom","Anjali",NULL,"2025-06-25 14:13:19","2025-06-25 14:13:19"
"1092","TechNiche UK Ltd.","UK","TW8 8LE Brentford","techniche-europe.com ","442082326866","sales@techniche-europe.com","TechNiche UK Ltd. 
Crown House 30, Commerce Road
TW8 8LE Brentford, United Kingdom","Anjali",NULL,"2025-06-25 14:13:19","2025-06-25 14:13:19"
"1093","TOF s.r.l.","Italy","28017 San Maurizio D'Opaglio (NO)","tofin.com ","390322915919","tof@tofin.com","TOF s.r.l. 
Via dell Erica 16-18 
28017 San Maurizio D'Opaglio (NO), Italy","Anjali",NULL,"2025-06-25 14:13:19","2025-06-25 14:13:19"
"1094","Van Laere International N.V.","Belgium","9220 Hamme","herockworkwear.com ","3252444821","info@herockworkwear.com","Van Laere International N.V. 
Zwaarveld 48 
9220 Hamme, Belgium","Anjali",NULL,"2025-06-25 14:13:19","2025-06-25 14:13:19"
"1095","Wintersteiger AG","Austria","4910 Ried im Innkreis","wintersteiger.at ","4377529190","drytech@wintersteiger.at","Wintersteiger AG 
Dimmelstr. 9 
4910 Ried im Innkreis, Austria","Anjali",NULL,"2025-06-25 14:13:19","2025-06-25 14:13:19"
"1096","Y. Berger & Co. AB","Sweden","421 30 Västra Frölunda","eurekasafety.se ","4631490940","bla@berger.se","Y. Berger & Co. AB 
Ingela Gathenhielms gata 3 
421 30 Västra Frölunda, Sweden","Anjali",NULL,"2025-06-25 14:13:19","2025-06-25 14:13:19"
"1097","Altrex BV","Netherlands","Mindenstraat 7, 8028 PK Zwolle"," http://www.altrex.com","31384557700","sales@altrex.com","Altrex BV
Mindenstraat 7, 8028 PK Zwolle
Netherlands","Anjali",NULL,"2025-06-25 14:13:19","2025-06-25 14:13:19"
"1098","Elacin International B.V.","Netherlands","5107 RG Dongen","elacinatwork.com ","31162372525","a.schulte@elacin.com","Elacin International B.V. 
De Hak 21 
5107 RG Dongen, Netherlands
P.O. Box 230
5100AE Dongen, Netherlands","Anjali",NULL,"2025-06-25 14:13:19","2025-06-25 14:13:19"
"1099","ETCHE SECURITE sarl","France","64130 Viodos-Abense-de-Bas","etchesecurite.com ","33559280541","etche@etchesecurite.fr","ETCHE SECURITE sarl 
ZA Ordokia 
64130 Viodos-Abense-de-Bas, France","Anjali",NULL,"2025-06-25 14:13:19","2025-06-25 14:13:19"
"1100","INTEGRAL THERMAL SHIELD, S.L.","Spain"," Asturias","itssafety.com ","34985722601","info@itssafety.com","INTEGRAL THERMAL SHIELD, S.L. 
P.I. Promogranda, Nave 6 
33199 Granda, Asturias, Spain","Anjali",NULL,"2025-06-25 14:13:19","2025-06-25 14:13:19"
"1101","MALINA-Safety s.r.o.","Czech Republic","466 01 Jablonec nad Nisou","malina-safety.cz ","420483356621","export@malina-safety.cz","MALINA-Safety s.r.o. 
Lucni 1391/11 
466 01 Jablonec nad Nisou, Czech Republic","Anjali",NULL,"2025-06-25 14:13:19","2025-06-25 14:13:19"
"1102","PPE Services B.V.","Netherlands","3036BC Rotterdam","ppe-services.com ","31104432337","ppe@ppe-services.com","PPE Services B.V. 
Bergweg 66 
3036BC Rotterdam, Netherlands","Anjali",NULL,"2025-06-25 14:13:19","2025-06-25 14:13:19"
"1103","Sacobel World Leather Confections BV","Netherlands","4817 BL Breda","sacobel.com ","31765711111","info@sacobel.com","Sacobel World Leather Confections BV 
Takkebijsters 15H 
4817 BL Breda, Netherlands
P.O. Box 2012
4800 CA Breda, Netherlands","Anjali",NULL,"2025-06-25 14:13:19","2025-06-25 14:13:19"
"1104","Sioen N.V.","Belgium","8850 Ardooie","sioenapparel.com ","3251740800","customer@sioen.be","Sioen N.V. 
Fabriekstraat 23 
8850 Ardooie, Belgium","Anjali",NULL,"2025-06-25 14:13:19","2025-06-25 14:13:19"
"1105","Weldas Europe B.V.","Netherlands","4612 RC Bergen op Zoom","weldas.com ","31164274650","europe@weldas.com","Weldas Europe B.V. 
Blankenweg 18 
4612 RC Bergen op Zoom, Netherlands","Anjali",NULL,"2025-06-25 14:13:19","2025-06-25 14:13:19"
"1106","ST QUADRAT Fall Protection SA","Luxembourg","5410 Beyren","lux-top-absturzsicherungen.de ","35226747265","info@st-quadrat.lu","ST QUADRAT Fall Protection SA 
45, rue Fuert 
5410 Beyren, Luxembourg","Anjali",NULL,"2025-06-25 14:13:19","2025-06-25 14:13:19"
"1107","Texstar AB","Sweden","NORRTÄLJE"," http://www.texstar.se","46176296550","order@texstar.se","Texstar AB
Gösvägen 7, 76141 Norrtälje
Sweden","Anjali",NULL,"2025-06-25 14:13:19","2025-06-25 14:13:19"
"1108","3M Deutschland GmbH","Germany","Carl-Schurz-Str. 1, 41453 Neuss"," http://www.3mdeutschland.de","492131140","innovation.de@3m.com","3M Deutschland GmbH
Carl-Schurz-Str. 1, 41453 Neuss
Germany","Anjali",NULL,"2025-06-25 14:13:19","2025-06-25 14:13:19"
"1109","7 Solutions GmbH","Germany","Mathias-Brüggen-Str. 39, 50827 Köln"," http://www.7solutions.de","4922117089410","info@7solutions.de","7 Solutions GmbH
Mathias-Brüggen-Str. 39, 50827 Köln
Germany","Anjali",NULL,"2025-06-25 14:13:19","2025-06-25 14:13:19"
"1110","Abdullah Tannery Private Limited","India","208010 Kanpur",,"5122464051","anumir@abdullahtannery.com","Abdullah Tannery Private Limited 
16-B, 150 Feet Road, Jajmau 
208010 Kanpur, India","Anjali",NULL,"2025-06-25 14:13:19","2025-06-25 14:13:19"
"1111","Abhikriti Impex Pvt. Ltd.","India","700 026 Kolkata","agriminternational.com ","3324545215","agrim@vsnl.com","Abhikriti Impex Pvt. Ltd. 
Anand Bhawan 1st Floor 92, Hazra Road
700 026 Kolkata, India","Anjali",NULL,"2025-06-25 14:13:19","2025-06-25 14:13:19"
"1112","ABUS August Bremicker Söhne KG","Germany","Altenhofer Weg 25, 58300 Wetter (Ruhr)"," http://www.abus.com","4923356340","info@abus.com","ABUS August Bremicker Söhne KG
Altenhofer Weg 25, 58300 Wetter (Ruhr)
Germany","Anjali",NULL,"2025-06-25 14:13:19","2025-06-25 14:13:19"
"1113","Acknit Industries Limited","India","700 017 Kolkata","acknitindia.com ","3322877617","sales@acknitindia.com","Acknit Industries Limited 
224, A. J. C. Bose Road. Suit No 817, Krishna
700 017 Kolkata, India","Anjali",NULL,"2025-06-25 14:13:19","2025-06-25 14:13:19"
"1114","Addgards Co. Ltd","IRELAND","DUBLIN 18"," http://addgards.com","35312149833","emmaflynn@addgards.com","Addgards Co. Ltd
Unit 3 Blackglen Village Centre, Sandyford, D18 W251 Dublin 18
Ireland","Anjali",NULL,"2025-06-25 14:13:19","2025-06-25 14:13:19"
"1115","Adolf Würth GmbH & Co. KG","Germany","Reinhold-Würth-Str. 12-17, 74653 Künzelsau"," http://www.wuerth.de","497940150","info@wuerth.com","Adolf Würth GmbH & Co. KG
Postfach 12 61, 74642 Künzelsau 
Reinhold-Würth-Str. 12-17, 74653 Künzelsau
Germany","Anjali",NULL,"2025-06-25 14:13:19","2025-06-25 14:13:19"
"1116","Airflow Lufttechnik GmbH","Germany","Kleine Heeg 21, 53359 Rheinbach"," http://www.airflow.de","49222692050","info@airflow.de","Airflow Lufttechnik GmbH
Postfach 12 08, 53349 Rheinbach 
Kleine Heeg 21, 53359 Rheinbach
Germany","Anjali",NULL,"2025-06-25 14:13:19","2025-06-25 14:13:19"
"1117","AISCO Firetrainer GmbH","Germany","Grünstr. 18, 79232 March"," http://www.aisco-firetrainer.com","497665947750","info@aisco-firetrainer.com","AISCO Firetrainer GmbH
Postfach 10 01 64, 79120 March 
Grünstr. 18, 79232 March
Germany","Anjali",NULL,"2025-06-25 14:13:19","2025-06-25 14:13:19"
"1118","ALBA & N s.r.l.","Italy","76125 Trani (BT)","albaen.it ","390883532581","info@albaen.it","ALBA & N s.r.l. 
Strada Provinciale Trani - Andria Km 2 
76125 Trani (BT), Italy","Anjali",NULL,"2025-06-25 14:13:19","2025-06-25 14:13:19"
"1119","Albert Fezer Maschinenfabrik GmbH","Germany","Hauptstr. 37-39, 73730 Esslingen-Zell"," http://www.fezer.com","49711360090","info@fezer.com","Albert Fezer Maschinenfabrik GmbH
Postfach 50 24, 73716 Esslingen-Zell 
Hauptstr. 37-39, 73730 Esslingen-Zell
Germany","Anjali",NULL,"2025-06-25 14:13:19","2025-06-25 14:13:19"
"1120","ALIS Tech s.r.o.","CZECH REPUBLIC","BRNO"," http://www.alis-tech.com","42073923398","info@alis-tech.com","ALIS Tech s.r.o.
Purkynova 127, 61200 Brno
Czechia","Anjali",NULL,"2025-06-25 14:13:20","2025-06-25 14:13:20"
"1121","ALWIT GmbH","Germany","Kattegatweg 6, 46446 Emmerich am Rhein"," http://www.alwit.de","49282891460","info@alwit.com","ALWIT GmbH
Kattegatweg 6, 46446 Emmerich am Rhein
Germany","Anjali",NULL,"2025-06-25 14:13:20","2025-06-25 14:13:20"
"1122","Amazing Industries (Partnership)","Pakistan","Sublime Chowck, Defence Road, 51310 Sialkot"," http://www.amazingind.com","9230183878700","info@amazingind.com","Amazing Industries (Partnership)
Sublime Chowck, Defence Road, 51310 Sialkot
Pakistan","Anjali",NULL,"2025-06-25 14:13:20","2025-06-25 14:13:20"
"1123","ANA INDUSTRIAL SAFETY PRIVATE LTD.","India","700 016 Kolkata","anaindus.com ","3322265363","anaind.safety@gmail.com","ANA INDUSTRIAL SAFETY PRIVATE LTD. 
99A, Park Street, Siddha Park Building 5th Floor, Unit No. 5A
700 016 Kolkata, India","Anjali",NULL,"2025-06-25 14:13:20","2025-06-25 14:13:20"
"1124","Anderco Safety (Irl) Ltd","IRELAND","CORK"," http://www.anderco.eu","353214351600","info@anderco.eu","Anderco Safety (Irl) Ltd
52 Eastgate Drive, Little Island, T45KX50 Cork
Ireland","Anjali",NULL,"2025-06-25 14:13:20","2025-06-25 14:13:20"
"1125","APRILCLOG Aps","DENMARK","VEJLE"," http://www.aprilclog.com","457523700793","info@aprilclog.com","APRILCLOG Aps
Bellisvej 32, 7100 Vejle
Denmark","Anjali",NULL,"2025-06-25 14:13:20","2025-06-25 14:13:20"
"1126","ARBESKO AB","Sweden","702 26 Örebro","arbesko.com ","4619306600","info@arbesko.se","ARBESKO AB 
Propellervagen 5 
702 26 Örebro, Sweden
P.O. Box 1642
701 16 Örebro, Sweden","Anjali",NULL,"2025-06-25 14:13:20","2025-06-25 14:13:20"
"1127","ARMBURY INC.","USA","NC"," http://armbury.com","17047073037",,"ARMBURY INC.
4 Long Shoals Rd, 28704 Arden, NC
USA","Anjali",NULL,"2025-06-25 14:13:20","2025-06-25 14:13:20"
"1128","A-Safe GmbH","Germany","Sitzkrüger Moor 6, 23879 Mölln"," http://www.asafe.de","4945429958040","vertrieb@asafe.de","A-Safe GmbH
Sitzkrüger Moor 6, 23879 Mölln
Germany","Anjali",NULL,"2025-06-25 14:13:20","2025-06-25 14:13:20"
"1129","ASAP International Sdn Bhd","Malaysia","Selangor"," http://www.whyasap.com","60351910166","info@whyasap.com","No. 1, Jalan Sitar 33/6, Seksyen 33, 40400 Shah Alam, Selangor Malaysia","Anjali",NULL,"2025-06-25 14:13:20","2025-06-25 14:13:20"
"1130","asecos GmbH Sicherheit und Umweltschutz","Germany","Weiherfeldsiedlung 16-18, 63584 Gründau"," http://www.smokeandtalk.com","49605192200","info@asecos.com","asecos GmbH Sicherheit und Umweltschutz
Weiherfeldsiedlung 16-18, 63584 Gründau
Germany","Anjali",NULL,"2025-06-25 14:13:20","2025-06-25 14:13:20"
"1131","ASIF SULTAN TRADE IMPEX Partnership","PAKISTAN","SIALKOT"," http://www.asifsultan.com","92523613535","mail@asifsultan.com","ASIF SULTAN TRADE IMPEX Partnership
Pasrur Road, Dhera Sandha, 51310 Sialkot
Pakistan","Anjali",NULL,"2025-06-25 14:13:20","2025-06-25 14:13:20"
"1132","ATLAS EXPORTS (PVT) LTD.","Pakistan","57400 Lahore","atlasexports.com.pk ","924237514803","amannan@lhr.comsats.net.pk","ATLAS EXPORTS (PVT) LTD. 
House No-255 Block-J Street-11 Eme Housing Society Multan Road
57400 Lahore, Pakistan","Anjali",NULL,"2025-06-25 14:13:20","2025-06-25 14:13:20"
"1133","Atlas Schuhfabrik GmbH & Co. KG","Germany","Frische Luft 159, 44319 Dortmund"," http://www.atlasschuhe.de","4923192420","info@atlasschuhe.de","Atlas Schuhfabrik GmbH & Co. KG
Frische Luft 159, 44319 Dortmund
Germany","Anjali",NULL,"2025-06-25 14:13:20","2025-06-25 14:13:20"
"1134","ATOM Corporation JSC","Japan","7292317 Hiroshima","atomgloves.com ","81846261258","tmorishita@atom-glove.co.jp","ATOM Corporation JSC 
4-2-1 Tadanoumi-Higashimachi Takehara
7292317 Hiroshima, Japan","Anjali",NULL,"2025-06-25 14:13:20","2025-06-25 14:13:20"
"1135","Audinnov SAS","France","71800 Varennes sous Dun","audinnov.fr ","33385280141","contact@audinnov.fr","Audinnov SAS 
ZA DU Pasquier 3 
71800 Varennes sous Dun, France","Anjali",NULL,"2025-06-25 14:13:20","2025-06-25 14:13:20"
"1136","AUSTRIALPIN GmbH","AUSTRIA","Österreich","austrialpin.at/","435226000000","office@austrialpin.at","A 6166 Fulpmes - Industriegelände Zone C 2","Anjali",NULL,"2025-06-25 14:13:20","2025-06-25 14:13:20"
"1137","Automax Industrial Ltd.","CHINA","GAOQIAO TOWN, NINGBO"," http://www.greendevilsafety.com","8657488446248","max@greendevilsafety.com","Automax Industrial Ltd.
Nr. 75, Baowang Road, GaoQiao Ind. Zone, 315174 GaoQiao Town, Ningbo
China","Anjali",NULL,"2025-06-25 14:13:20","2025-06-25 14:13:20"
"1138","Azett GmbH & Co. KG","Germany","Gutenbergstr. 8, 87781 Ungerhausen"," http://www.azett.de","498393922700","info@azett.de","Azett GmbH & Co. KG
Gutenbergstr. 8, 87781 Ungerhausen
Germany","Anjali",NULL,"2025-06-25 14:13:20","2025-06-25 14:13:20"
"1139","B·A·D Gesundheitsvorsorge und Sicherheitstechnik GmbH","Germany","Bonn"," http://www.bad-gmbh.de","49228400720","info@bad-gmbh.de","Postfach 300264, 53182 Bonn  Herbert-Rabius-Str. 1, 53225 Bonn Germany","Anjali",NULL,"2025-06-25 14:13:20","2025-06-25 14:13:20"
"1140","Baak GmbH & Co. KG","Germany","Hubertusstr. 3, 47638 Straelen"," http://www.baak.de","492834942410","info@baak.de","Baak GmbH & Co. KG
Hubertusstr. 3, 47638 Straelen
Germany","Anjali",NULL,"2025-06-25 14:13:20","2025-06-25 14:13:20"
"1141","Balder d.o.o.","Slovenia","LJUBLJANA"," http://www.balder.si","38614264579","info@balder.si","Balder d.o.o. Teslova 30, 1000 Ljubljana Slovenia","Anjali",NULL,"2025-06-25 14:13:20","2025-06-25 14:13:20"
"1142","Balzer Bildungskonzepte GmbH","Germany","Am Tennisplatz 12, 21684 Stade"," http://www.balzer-online.de","49414198990",,"Balzer Bildungskonzepte GmbH
Am Tennisplatz 12, 21684 Stade
Germany","Anjali",NULL,"2025-06-25 14:13:20","2025-06-25 14:13:20"
"1143","BartelsRieger Atemschutztechnik GmbH","Germany","Richard-Byrd-Str. 23, 50829 Köln"," http://www.bartels-rieger.de","49221597770","mail@bartels-rieger.de","BartelsRieger Atemschutztechnik GmbH
Richard-Byrd-Str. 23, 50829 Köln
Germany","Anjali",NULL,"2025-06-25 14:13:20","2025-06-25 14:13:20"
"1144","Basaran is Elbiseleri ve Is Güvenligi Ekipmanlari san. ve. Tic. Ltd. Sti","TURKEY","ISTANBUL"," http://basaraniselbiseleri.com","902163944759","alpaslan@basaraniselbiseleri.com","Basaran is Elbiseleri ve Is Güvenligi Ekipmanlari san. ve. Tic. Ltd. Sti
Merkez Mahallesi Demokrasi Caddesi, Serüven Sokoak No: 3 Orhanli / Tezla, 34956 Istanbul
Turkey","Anjali",NULL,"2025-06-25 14:13:20","2025-06-25 14:13:20"
"1145","Base of Trade AB","Sweden","171 54 Solna","baseoftrade.com ","4687750050","bo.gunterberg@baseoftrade.com","Base of Trade AB 
Hemvärnsgatan 15, 7tr 
171 54 Solna, Sweden","Anjali",NULL,"2025-06-25 14:13:20","2025-06-25 14:13:20"
"1146","Bauer GmbH","Germany","Eichendorffstr. 62, 46354 Südlohn"," http://www.bauer-suedlohn.de","4928627090","info@bauer-suedlohn.de","Bauer GmbH
Postfach 20 11, 46350 Südlohn 
Eichendorffstr. 62, 46354 Südlohn
Germany","Anjali",NULL,"2025-06-25 14:13:20","2025-06-25 14:13:20"
"1147","Bay Publishing Ltd.","UK"," Dorset","bay-publishing.com ","441305785199","jodie@bay-publishing.com","Bay Publishing Ltd. 
1 Oxford Court, The Granby Industrial Estate
DT4 9GH Weymouth, Dorset, United Kingdom","Anjali",NULL,"2025-06-25 14:13:20","2025-06-25 14:13:20"
"1148","BBS GLOBAL PVT. LTD.","INDIA","KOLKATA"," http://www.bbsglobal.in","3324192775","info@bbsglobal.in","BBS GLOBAL PVT. LTD.
3 Dr. Rajendra Road, Unit 1A, 700020 Kolkata
India","Anjali",NULL,"2025-06-25 14:13:20","2025-06-25 14:13:20"
"1149","Beeswift Ltd.","UK"," West Midlands","beeswift.com ","441215242323","marketing@beeswift.com","Beeswift Ltd. 
West Wing, Delta House, Delta Point Greets Green Road
B70 9PL West Bromwich, West Midlands, United Kingdom","Anjali",NULL,"2025-06-25 14:13:20","2025-06-25 14:13:20"
"1150","Bekina ® Boots N.V.","Belgium","9690 Kluisbergen","bekina-boots.be ","3255390020","info@bekina-boots.be","Bekina ® Boots N.V. 
Berchemstraat, 124 
9690 Kluisbergen, Belgium","Anjali",NULL,"2025-06-25 14:13:20","2025-06-25 14:13:20"
"1151","Bexus Industries Co., Ltd.","Taiwan","TAICHUNG"," http://www.bexussafety.com","886423392379","service@bexussafety.com","Bexus Industries Co., Ltd. No. 88-8, Sec. 2, Zhongtou W. Rd., Wufeng Dist., 41355 Taichung Taiwan","Anjali",NULL,"2025-06-25 14:13:20","2025-06-25 14:13:20"
"1152","BGM-Solutions Gesellschaft für ganzheitliches Gesundheitsmanagement mbH","Germany","Jülich"," http://www.bgm-solutions.de","492461690380","info@bgm-solutions.de","Karl-Heinz-Beckurts-Str. 13, 52428 Jülich Germany","Anjali",NULL,"2025-06-25 14:13:20","2025-06-25 14:13:20"
"1153","Bierbaum-Proenen GmbH & Co. KG","Germany","Im Carre Domstrasse,Domstr. 55-73, 50668 Köln"," http://www.bp-online.com","4922116560","info@bierbaum-proenen.de","Bierbaum-Proenen GmbH & Co. KG
Postfach 100442, 50444 Köln 
Im Carre Domstrasse,Domstr. 55-73, 50668 Köln
Germany","Anjali",NULL,"2025-06-25 14:13:20","2025-06-25 14:13:20"
"1154","BIG Arbeitsschutz GmbH","Germany","Königsberger Str. 6, 21244 Buchholz in der Nordheide"," http://www.big-arbeitsschutz.de","49418190950","info@big-arbeitsschutz.de","BIG Arbeitsschutz GmbH
Königsberger Str. 6, 21244 Buchholz in der Nordheide
Germany","Anjali",NULL,"2025-06-25 14:13:20","2025-06-25 14:13:20"
"1155","Bi-Wear Clothing Company BV","Netherlands","H.J.E. Wenckebachweg 47b, 1096 AK Amsterdam"," http://www.ChaudDevant.com","31204941930","info@ChaudDevant.com","Bi-Wear Clothing Company BV
H.J.E. Wenckebachweg 47b, 1096 AK Amsterdam
Netherlands","Anjali",NULL,"2025-06-25 14:13:20","2025-06-25 14:13:20"
"1156","BLACKMAMBA SAS","France","Haillan"," http://www.blackmamba-europe.com","33557225614","info@blackmamba-europe.com","3, rue Jules Verne, 33185 Le Haillan France","Anjali",NULL,"2025-06-25 14:13:20","2025-06-25 14:13:20"
"1157","BLS SRL","Italy","Via dei Giovi, 41, 20032 Cormano (MI)"," http://www.blsgroup.it","390239310212","marketing@blsgroup.it","BLS SRL
Via dei Giovi, 41, 20032 Cormano (MI)
Italy","Anjali",NULL,"2025-06-25 14:13:20","2025-06-25 14:13:20"
"1158","Bollé Safety SARL","France","69100 Villeurbanne","bolle-safety.com ","3340478851847","rmeunier@bolle-safety.com","Bollé Safety SARL 
95 rue Louis Guerin 
69100 Villeurbanne, France","Anjali",NULL,"2025-06-25 14:13:20","2025-06-25 14:13:20"
"1159","Boplan Deutschland GmbH","Germany","Babenhäuser Str. 50, 63762 Großostheim"," http://www.boplan.de","4960269995190","info@boplan.de","Boplan Deutschland GmbH
Babenhäuser Str. 50, 63762 Großostheim
Germany","Anjali",NULL,"2025-06-25 14:13:20","2025-06-25 14:13:20"
"1160","BORNACK GmbH & Co. KG","GERMANY","ILSFELD"," http://www.bornack.de","497062269000","info@bornack.de","BORNACK GmbH & Co. KG
Bustadt 39, 74360 Ilsfeld
Germany","Anjali",NULL,"2025-06-25 14:13:20","2025-06-25 14:13:20"
"1161","Botsan Ayakkabicilik Tekstil Poliüretan Plastik San. ve Tic. Ltd. Sti","TURKEY","GAZIANTEP"," http://www.botsan.com.tr","903423251212","kemalcaglar@hotmail.com","Botsan Ayakkabicilik Tekstil Poliüretan Plastik San. ve Tic. Ltd. Sti
Cakmak Mah. Basak Sok. No:64, 27080 Gaziantep
Turkey","Anjali",NULL,"2025-06-25 14:13:20","2025-06-25 14:13:20"
"1162","BRADY GmbH","Germany","Brady-Str. 1, 63329 Egelsbach"," http://www.bradyeurope.com","4961037598660","csgermany@bradycorp.com","BRADY GmbH
Brady-Str. 1, 63329 Egelsbach
Germany","Anjali",NULL,"2025-06-25 14:13:20","2025-06-25 14:13:20"
"1163","Branach Manufacturing Pty Ltd","Australia","3155 Victoria","branach.com.au ","61397616633","patdriscoll@branach.com.au","Branach Manufacturing Pty Ltd 
1/991, Mountain Highway Boronia 
3155 Victoria, Australia
P.O. Box 1/991
3135 Victoria, Australia","Anjali",NULL,"2025-06-25 14:13:20","2025-06-25 14:13:20"
"1164","Brimatic GmbH","GERMANY","VELBERT"," http://www.brimatic.de","4920527091","info@brimatic.de","Brimatic GmbH
Uferstr. 19, 42555 Velbert
Germany","Anjali",NULL,"2025-06-25 14:13:20","2025-06-25 14:13:20"
"1165","BROEN-LAB A/S","DENMARK","ASSENS"," http://broen-lab.com","4563766376","lab@broen-lab.com","BROEN-LAB A/S
Drejervaenget 2, 5610 Assens
Denmark","Anjali",NULL,"2025-06-25 14:13:20","2025-06-25 14:13:20"
"1166","BsAfB Bundesverband selbstständiger Arbeitsmediziner und freiberuflicher Betriebsärzte e.V.","GERMANY","BAD ESSEN"," http://www.bsafb.de","495472943325","info@bsafb.de","BsAfB Bundesverband selbstständiger Arbeitsmediziner und freiberuflicher Betriebsärzte e.V.
Gartenstr. 29, 49152 Bad Essen
Germany","Anjali",NULL,"2025-06-25 14:13:20","2025-06-25 14:13:20"
"1167","B-SAFETY GmbH","GERMANY","NORDERSTEDT"," http://www.b-safety.com","494053809270","info@b-safety.com","B-SAFETY GmbH
Oststr. 85, 22844 Norderstedt
Germany","Anjali",NULL,"2025-06-25 14:13:20","2025-06-25 14:13:20"
"1168","Bundesanstalt für Arbeitsschutz und Arbeitsmedizin","Germany","Friedrich-Henkel-Weg 1-25, 44149 Dortmund"," http://www.baua.de","4923190710","poststelle@baua.bund.de","Bundesanstalt für Arbeitsschutz und Arbeitsmedizin
Friedrich-Henkel-Weg 1-25, 44149 Dortmund
Germany","Anjali",NULL,"2025-06-25 14:13:20","2025-06-25 14:13:20"
"1169","Bundesverband der Asbestose Selbsthilfe e. V.","GERMANY","KIEL"," http://www.asbesterkrankungen.de","491607089086","soenke-bock@web.de","Bundesverband der Asbestose Selbsthilfe e. V.
Karlsbader Straße 123, 24146 Kiel
Germany","Anjali",NULL,"2025-06-25 14:13:20","2025-06-25 14:13:20"
"1170","Bundesvereinigung der Deutschen Arbeitgeberverbände e.V.","Germany","Breite Str. 29, Haus der Deutschen Wirtschaft, 10178 Berlin"," http://www.arbeitgeber.de","493020330","soziale.sicherung@arbeitgeber.de","Bundesvereinigung der Deutschen Arbeitgeberverbände e.V.
Breite Str. 29, Haus der Deutschen Wirtschaft, 10178 Berlin
Germany","Anjali",NULL,"2025-06-25 14:13:20","2025-06-25 14:13:20"
"1171","Calz. Garsport S.r.l","Italy","31040 Volpago del Montello (Tv)","garsport.it ","390423870044","sales@garsport.it","Calz. Garsport S.r.l 
Via Piave, 15 
31040 Volpago del Montello (Tv), Italy","Anjali",NULL,"2025-06-25 14:13:20","2025-06-25 14:13:20"
"1172","Calzaturificio Montebove s.r.l.","Italy","62029 Tolentino","montebove.it ","390733971485","marketing@montebove.it","Calzaturificio Montebove s.r.l. 
via Rossini 10 
62029 Tolentino, Italy","Anjali",NULL,"2025-06-25 14:13:20","2025-06-25 14:13:20"
"1173","Carel Lurvink B.V.","NETHERLANDS","ENSCHEDE"," http://www.carellurvink.nl","31534344343","info@carellurvink.nl","Carel Lurvink B.V.
Marssteden 40, 7547 TC Enschede
Netherlands","Anjali",NULL,"2025-06-25 14:13:20","2025-06-25 14:13:20"
"1174","Carlos Arboles S.A.","Spain","08191 Rubi","carlosarboles.com ","34935860780","info@carlosarboles.com","Carlos Arboles S.A. 
Compositor Narvaez, 10 Pol. Ind. Can Jardí Street
08191 Rubi, Spain","Anjali",NULL,"2025-06-25 14:13:20","2025-06-25 14:13:20"
"1175","Cemo GmbH","Germany","In den Backenländern 5, 71384 Weinstadt"," http://www.cemo.de","49715196360","kontakt@cemo.de","Cemo GmbH
In den Backenländern 5, 71384 Weinstadt
Germany","Anjali",NULL,"2025-06-25 14:13:20","2025-06-25 14:13:20"
"1176","Centurion Safety Products Ltd.","UK"," Norfolk","centurionsafety.co.uk ","441842754266","sales@centurionsafety.co.uk","Centurion Safety Products Ltd. 
Howlett Way 
IP24 1HZ Thetford, Norfolk, United Kingdom","Anjali",NULL,"2025-06-25 14:13:20","2025-06-25 14:13:20"
"1177","Certottica scrl","Italy","32013 Longarone (BL)","certottica.it ","390437573157","info@certottica.it","Certottica scrl 
Via Villanova 7/A Zona Industriale 
32013 Longarone (BL), Italy","Anjali",NULL,"2025-06-25 14:13:20","2025-06-25 14:13:20"
"1178","CG International GmbH","Germany","Irlachstr. 1 A, 83043 Bad Aibling"," http://www.cginternational.de","498061495290","info@cginternational.de","CG International GmbH
Irlachstr. 1 A, 83043 Bad Aibling
Germany","Anjali",NULL,"2025-06-25 14:13:20","2025-06-25 14:13:20"
"1179","Chandra Mukhi Impex Limited","India","Kolkata"," http://www.unito.co.in","3330551800","mail@cmimpex.com","33A J. L. Nehru Road, 12th Floor, 700071 Kolkata India","Anjali",NULL,"2025-06-25 14:13:20","2025-06-25 14:13:20"
"1180","COFRA S.r.l.","Italy","76121 Barletta (Ba)","cofra.it ","3908833414300","customerservice@cofra.it","COFRA S.r.l. 
Via dell´Euro, 43-59 PO Box 2010 Uff. Postale Barletta C
76121 Barletta (Ba), Italy","Anjali",NULL,"2025-06-25 14:13:20","2025-06-25 14:13:20"
"1181","Comazo GmbH & Co. KG","Germany","Martin-Luther-Str. 1, 72461 Albstadt"," http://www.comazo.de","49743270190","info@comazo.de","Comazo GmbH & Co. KG
Postfach 1520, 72438 Albstadt 
Martin-Luther-Str. 1, 72461 Albstadt
Germany","Anjali",NULL,"2025-06-25 14:13:20","2025-06-25 14:13:20"
"1182","Confecciones Trivi, S.L.","SPAIN","CAMBADOS"," http://www.trivi.es","34986986542265","trivi@trivi.net","Confecciones Trivi, S.L.
Avda. de Vilagarcía, 51, 36630 Cambados
Spain","Anjali",NULL,"2025-06-25 14:13:20","2025-06-25 14:13:20"
"1183","CONIK S.A.","Greece","ELEFSINA"," http://conik.gr","302105560140","info@conik.gr","CONIK S.A.
Sikelianou and Viziinou Str., 19200 Elefsina
Greece","Anjali",NULL,"2025-06-25 14:13:20","2025-06-25 14:13:20"
"1184","Contour Design Nordic A/S","Denmark","Ballerup","contourdesign.dk","4570270227","info@contour-design.com","Borupvang 5B, st.tv. 2750 Ballerup, Danmark","Anjali",NULL,"2025-06-25 14:13:20","2025-06-25 14:13:20"
"1185","Cosmos Cordes GmbH","Germany","Im Retzer 15, 69231 Rauenberg"," http://www.cosmoccordesgmbh.de","4972539590706",,"Cosmos Cordes GmbH
Im Retzer 15, 69231 Rauenberg
Germany","Anjali",NULL,"2025-06-25 14:13:20","2025-06-25 14:13:20"
"1186","Daksafe BV","NETHERLANDS","MONTFOORT"," http://www.daksafe.nl","31348475200","b.torres@daksafe.nl","Daksafe BV
P.O. Box 92, 3417 XJ Montfoort 
Waardsedijk Oost 12, 3417 XJ Montfoort
Netherlands","Anjali",NULL,"2025-06-25 14:13:20","2025-06-25 14:13:20"
"1187","dbb beamtenbund und tarifunion","Germany","Friedrichstr. 169, 10117 Berlin"," http://www.dbb.de","493040815301","gb4@dbb.de","dbb beamtenbund und tarifunion
Friedrichstr. 169, 10117 Berlin
Germany","Anjali",NULL,"2025-06-25 14:13:20","2025-06-25 14:13:20"
"1188","DELTA PLUS SERVICES S.A.S.","France","84405 Apt Cedex","deltaplus.eu ","33490742033","information@deltaplus.fr","DELTA PLUS SERVICES S.A.S. 
ZAC La Peyroliere 
84405 Apt Cedex, France
P.O. Box BP140
84405 Apt Cedex, France","Anjali",NULL,"2025-06-25 14:13:20","2025-06-25 14:13:20"
"1189","Derekduck Industries Corp.","Taiwan","10351 Taipei","derekduck.com ","886225508856","derekduck@derekduck.com","Derekduck Industries Corp. 
9F, No. 70-1, Sec 1, Chengde Rd., 
10351 Taipei, Taiwan","Anjali",NULL,"2025-06-25 14:13:20","2025-06-25 14:13:20"
"1190","Desire Solution GmbH","Germany","Ruhenhof 4, 48565 Steinfurt"," http://www.desire-solution.de","49255183510","info@desire-solution.de","Desire Solution GmbH
Ruhenhof 4, 48565 Steinfurt
Germany","Anjali",NULL,"2025-06-25 14:13:20","2025-06-25 14:13:20"
"1191","Deutsche Rentenversicherung Bund","Germany","Hohenzollerndamm 45, 10713 Berlin"," http://www.deutsche-rentenversicherung-bund.de","493086582028",,"Deutsche Rentenversicherung Bund
Hohenzollerndamm 45, 10713 Berlin
Germany","Anjali",NULL,"2025-06-25 14:13:20","2025-06-25 14:13:20"
"1192","Devisys Oy","Finland","33900 Tampere","devisys.fi ","358503295254","info@devisys.fi","Devisys Oy 
Pöytäsarankatu 1 
33900 Tampere, Finland","Anjali",NULL,"2025-06-25 14:13:20","2025-06-25 14:13:20"
"1193","Devold of Norway A/S","Norway","6030 Langevag","devold.com ","4770197700","firmapost@devold.no","Devold of Norway A/S 
Molvaersvegen 12 
6030 Langevag, Norway","Anjali",NULL,"2025-06-25 14:13:20","2025-06-25 14:13:20"
"1194","die ergonomie.experten Dr. Wolfgang Schneider","Germany","Otto-Lilienthal-Str. 2, 88046 Friedrichshaven"," http://www.ergonomieexperten.de","4975413003447","info@ergonomieexperten.de","die ergonomie.experten Dr. Wolfgang Schneider
Otto-Lilienthal-Str. 2, 88046 Friedrichshaven
Germany","Anjali",NULL,"2025-06-25 14:13:20","2025-06-25 14:13:20"
"1195","Dipped Products PLC","Sri Lanka","400 Deans Road, 01000 Colombo 10"," http://www.dplgroup.com","94112627508",,"Dipped Products PLC
400 Deans Road, 01000 Colombo 10
Sri Lanka","Anjali",NULL,"2025-06-25 14:13:20","2025-06-25 14:13:20"
"1196","Division Anatomicos S.L.","Spain","03630 Sax (Alicante)","dian.com ","34902929860","vazquez@dian.com","Division Anatomicos S.L. 
Persianas 8 
03630 Sax (Alicante), Spain
P.O. Box 145
03630 Sax (Alicante), Spain","Anjali",NULL,"2025-06-25 14:13:20","2025-06-25 14:13:20"
"1197","Dolezych GmbH & Co. KG","Germany","Hartmannstr. 8, 44147 Dortmund"," http://www.dolezych.de","49231818181","info@dolezych.de","Dolezych GmbH & Co. KG
Postfach 100909, 44009 Dortmund 
Hartmannstr. 8, 44147 Dortmund
Germany","Anjali",NULL,"2025-06-25 14:13:20","2025-06-25 14:13:20"
"1198","Dolfing Druten BV","NETHERLANDS","DRUTEN"," http://www.dolfing.nl","31487512823","info@dolfing.nl","Dolfing Druten BV
Westerhout 1, 6651 CW Druten
Netherlands","Anjali",NULL,"2025-06-25 14:13:20","2025-06-25 14:13:20"
"1199","domeba distribution GmbH","Germany","Straße der Nationen 41 A/B, 09111 Chemnitz"," http://www.domeba.de","493714002080","info@domeba.de","domeba distribution GmbH
Straße der Nationen 41 A/B, 09111 Chemnitz
Germany","Anjali",NULL,"2025-06-25 14:13:20","2025-06-25 14:13:20"
"1200","DONGLIAN FASHION BD LTD.","BANGLADESH","ASHULIA"," http://www.donglian-fashion.com","8801790666668","sky.w@donglian-fashion.com","DONGLIAN FASHION BD LTD.
Hazi Rafiz Tower Unique BUS Stop Jamgorg, Dhaka, 1349 Ashulia
Bangladesh","Anjali",NULL,"2025-06-25 14:13:20","2025-06-25 14:13:20"
"1201","Dressguard GmbH","Germany","Pfälzer Waldweg 24, 68753 Waghäusel"," http://www.dressguard.de","497254958690","dressguard@dressguard.de","Dressguard GmbH
Pfälzer Waldweg 24, 68753 Waghäusel
Germany","Anjali",NULL,"2025-06-25 14:13:20","2025-06-25 14:13:20"
"1202","DÜPERTHAL Sicherheitstechnik GmbH & Co. KG","Germany","Frankenstr. 3, 63791 Karlstein / Main"," http://www.dueperthal.com","49618891390","info@dueperthal.com","DÜPERTHAL Sicherheitstechnik GmbH & Co. KG
Frankenstr. 3, 63791 Karlstein / Main
Germany","Anjali",NULL,"2025-06-25 14:13:20","2025-06-25 14:13:20"
"1203","DuPont de Nemours (Luxembourg) S.a.r.l.","Luxembourg","2984 Contern","personalprotection.dupont.co.uk ","35280036666666","personal.protection@lux.dupont.com","DuPont de Nemours (Luxembourg) S.a.r.l. 
Rue du Général Patton 
2984 Contern, Luxembourg","Anjali",NULL,"2025-06-25 14:13:20","2025-06-25 14:13:20"
"1204","Duramitt Sdn Bhd","Malaysia"," Kedah D A","2rabond.com ","6044855388","ykteow@2rabond.com","Duramitt Sdn Bhd 
No. 3, Jalan Baling, Pedang Meha Industrial Estate
09400 Padang Serai, Kedah D A, Malaysia","Anjali",NULL,"2025-06-25 14:13:20","2025-06-25 14:13:20"
"1205","Edelrid GmbH & Co. KG","Germany","Achener Weg 66, 88316 Isny im Allgäu"," http://www.edelrid.de","4975629810","mail@edelrid.de","Edelrid GmbH & Co. KG
Achener Weg 66, 88316 Isny im Allgäu
Germany","Anjali",NULL,"2025-06-25 14:13:20","2025-06-25 14:13:20"
"1206","EGE IMBAT A.S.","TURKEY","IZMIR"," http://www.egeimbat.com","902324213664","info@egeimbat.com","EGE IMBAT A.S.
1082, Sokak No:8/A Yenisehir Konak, 35170 Izmir
Turkey","Anjali",NULL,"2025-06-25 14:13:20","2025-06-25 14:13:20"
"1207","Egochef S.r.l.","Italy","31035 Crocetta del Montello (TV)","egochef.com ","390423665460","sales@egochef.com","Egochef S.r.l. 
Via Antighe 36/B 
31035 Crocetta del Montello (TV), Italy","Anjali",NULL,"2025-06-25 14:13:20","2025-06-25 14:13:20"
"1208","EHA - Ewald Hildebrandt GmbH & Co. KG","Germany","Feldstr. 30, 44867 Bochum"," http://www.eha.de","49232799170","kontakt@eha.de","EHA - Ewald Hildebrandt GmbH & Co. KG
Feldstr. 30, 44867 Bochum
Germany","Anjali",NULL,"2025-06-25 14:13:20","2025-06-25 14:13:20"
"1209","EIKO A. Eichler Inhaber: Börries Nord","Germany","Bachstr. 12, 38729 Lutter"," http://www.eiko.de","49538396370",,"EIKO A. Eichler Inhaber: Börries Nord
Bachstr. 12, 38729 Lutter
Germany","Anjali",NULL,"2025-06-25 14:13:20","2025-06-25 14:13:20"
"1210","Einkaufsbüro Deutscher Eisenhändler GmbH","Germany","EDE Platz 1, 42389 Wuppertal"," http://www.ede.de","4920260960",,"Einkaufsbüro Deutscher Eisenhändler GmbH
EDE Platz 1, 42389 Wuppertal
Germany","Anjali",NULL,"2025-06-25 14:13:20","2025-06-25 14:13:20"
"1211","Ejendals AB","Sweden","79332 Leksand","ejendals.com ","4624736000","info@ejendals.com","Ejendals AB 
Limavagen 28 
79332 Leksand, Sweden
P.O. Box 7
79321 Leksand, Sweden","Anjali",NULL,"2025-06-25 14:13:20","2025-06-25 14:13:20"
"1212","EKASTU Safety GmbH","Germany","Schänzle 8, 71332 Waiblingen"," http://www.ekastu.de","4971519750990","info@ekastu.de","EKASTU Safety GmbH
Schänzle 8, 71332 Waiblingen
Germany","Anjali",NULL,"2025-06-25 14:13:20","2025-06-25 14:13:20"
"1213","EKS Emniyet Kemer San ve Is Güv. Malz. Tic. Ltd. Sti.","Turkey","Ostim Uzay Cagi Caddesi 1251, Sok. No: 3 Yenimahalle, 06374 Ankara"," http://www.eksed.com.tr","903123542389","eks@eksed.com.tr","EKS Emniyet Kemer San ve Is Güv. Malz. Tic. Ltd. Sti.
Ostim Uzay Cagi Caddesi 1251, Sok. No: 3 Yenimahalle, 06374 Ankara
Turkey","Anjali",NULL,"2025-06-25 14:13:20","2025-06-25 14:13:20"
"1214","Elka Rainwear A.S.","Denmark","7451 Sunds","elkarainwear.dk ","4597142422","hp@elkarainwear.dk","Elka Rainwear A.S. 
Navervej 22-24 
7451 Sunds, Denmark [incl. Greenland]","Anjali",NULL,"2025-06-25 14:13:20","2025-06-25 14:13:20"
"1215","ELK-Gesellschaft für Entwicklung, Layout und Konzeption elektronischer Systeme mbH","Germany","Gladbacher Str. 232, 47805 Krefeld"," http://www.bappu.de","492151395670","info@bappu.de","ELK-Gesellschaft für Entwicklung, Layout und Konzeption elektronischer Systeme mbH
Gladbacher Str. 232, 47805 Krefeld
Germany","Anjali",NULL,"2025-06-25 14:13:20","2025-06-25 14:13:20"
"1216","Elten GmbH","Germany","Ostwall 7-13, 47589 Uedem"," http://www.elten.com","4928258068","service@elten.com","Elten GmbH
Postfach 11 47, 47587 Uedem 
Ostwall 7-13, 47589 Uedem
Germany","Anjali",NULL,"2025-06-25 14:13:20","2025-06-25 14:13:20"
"1217","EMA AYAKKABI A.S.","TURKEY","ISTANBUL"," http://www.emaayakkabi.com","902165933445","info@emaayakkabi.com","EMA AYAKKABI A.S.
Abdurrahman Gazi Mahallesi, Gazi Caddesi, No: 21 Sancaktepe, 34887 Istanbul
Turkey","Anjali",NULL,"2025-06-25 14:13:20","2025-06-25 14:13:20"
"1218","English Braids Ltd.","UK"," Worcestershire","englishbraids.com ","441684892222","sales@englishbraids.com","English Braids Ltd. 
Spring Lane 
WR14 1AL Malvern, Worcestershire, United Kingdom","Anjali",NULL,"2025-06-25 14:13:20","2025-06-25 14:13:20"
"1219","Ergodyne Corp.","USA","MN","ergodyne.com ","16512006048",,"Ergodyne Corp. 
 1021 Bandana Blvd E 
 Ste 220 
 Saint Paul, MN 55108-5130 
 United States ","Anjali",NULL,"2025-06-25 14:13:20","2025-06-25 14:13:20"
"1220","Ergomat A/S","Denmark","5471 Sonderso","ergomat.com ","4570221840","info@ergomat.com","Ergomat A/S 
Snavevej 6-10 
5471 Sonderso, Denmark [incl. Greenland]","Anjali",NULL,"2025-06-25 14:13:20","2025-06-25 14:13:20"
"1221","ErgoPack Deutschland GmbH","Germany","Hanns-Martin-Schleyer-Str. 21, 89415 Lauingen (Donau)"," http://www.ergopack.de","499072702830","info@ergopack.de","ErgoPack Deutschland GmbH
Hanns-Martin-Schleyer-Str. 21, 89415 Lauingen (Donau)
Germany","Anjali",NULL,"2025-06-25 14:13:20","2025-06-25 14:13:20"
"1222","Erich Schmidt Verlag GmbH & Co. KG","Germany","Genthiner Str. 30 G, 10785 Berlin"," http://www.esv.info","49302500850","esv@esvmedien.de","Erich Schmidt Verlag GmbH & Co. KG
Genthiner Str. 30 G, 10785 Berlin
Germany","Anjali",NULL,"2025-06-25 14:13:20","2025-06-25 14:13:20"
"1223","Eska Lederhandschuhfabrik Ges.m.b.H. & Co. KG","Austria","4600 Wels/Thalheim","eska.at ","43724247292","office@eska.at","Eska Lederhandschuhfabrik Ges.m.b.H. & Co. KG 
Am Thalbach 2 
4600 Wels/Thalheim, Austria","Anjali",NULL,"2025-06-25 14:13:20","2025-06-25 14:13:20"
"1224","EverGlow GmbH Sicherheitsleitsysteme","Germany","Draisstr. 19a-b, 76461 Muggensturm"," http://www.everglow.de","497222966650","info@everglow.de","EverGlow GmbH Sicherheitsleitsysteme
Draisstr. 19a-b, 76461 Muggensturm
Germany","Anjali",NULL,"2025-06-25 14:13:20","2025-06-25 14:13:20"
"1225","Excel Exims (Partnership)","India","208 010 Kanpur","excelexims.com ","5122460698","excelexims@hotmail.com","Excel Exims (Partnership) 
375-C Allied Street Jajmau
208 010 Kanpur, India","Anjali",NULL,"2025-06-25 14:13:20","2025-06-25 14:13:20"
"1226","Exena SRL","Italy","62012 Civitanova Marche","exena.it ","390733897256","info@exena.it","Exena SRL 
Via Breda 7-A Z. Ind A
62012 Civitanova Marche, Italy","Anjali",NULL,"2025-06-25 14:13:20","2025-06-25 14:13:20"
"1227","Exner Fashion GmbH","Germany","Karlstr. 20, 45739 Oer-Erkenschwick"," http://www.exner-online.com","492368699340","info@exner-online.com","Exner Fashion GmbH
Karlstr. 20, 45739 Oer-Erkenschwick
Germany","Anjali",NULL,"2025-06-25 14:13:20","2025-06-25 14:13:20"
"1228","F&R Brillen GmbH","Germany","Porschestr. 21, 84030 Landshut"," http://www.fr-eyewear.de","49871430820","info@fr-eyewear.de","F&R Brillen GmbH
Porschestr. 21, 84030 Landshut
Germany","Anjali",NULL,"2025-06-25 14:13:20","2025-06-25 14:13:20"
"1229","F. Engel K/S","Denmark","6100 Haderslev","f-engel.com ","4574223535","fe@f-engel.com","F. Engel K/S 
Norgesvej 12 
6100 Haderslev, Denmark [incl. Greenland]","Anjali",NULL,"2025-06-25 14:13:20","2025-06-25 14:13:20"
"1230","F.S. Candino Industries (Partnership)","Pakistan","51340 Sialkot","fscandino.com ","92523561030","fscandino@fscandino.com","F.S. Candino Industries (Partnership) 
Defence Road, Opp. Masjid Iqbal Town
51340 Sialkot, Pakistan","Anjali",NULL,"2025-06-25 14:13:20","2025-06-25 14:13:20"
"1231","Fachvereinigung Arbeitssicherheit e.V. (FASI)","Germany","Schiersteiner Str. 39, 65187 Wiesbaden"," http://www.fasi.de","49611157550","info@fasi.de","Fachvereinigung Arbeitssicherheit e.V. (FASI)
Schiersteiner Str. 39, 65187 Wiesbaden
Germany","Anjali",NULL,"2025-06-25 14:13:20","2025-06-25 14:13:20"
"1232","Fagus-GreCon Greten GmbH & Co. KG","Germany","Hannoversche Str. 58, 31061 Alfeld"," http://www.grecon.com","495181790","sales@fagus.de","Fagus-GreCon Greten GmbH & Co. KG
Postfach 1243, 31042 Alfeld 
Hannoversche Str. 58, 31061 Alfeld
Germany","Anjali",NULL,"2025-06-25 14:13:20","2025-06-25 14:13:20"
"1233","Fal Calzados de Seguridad, S.A.","Spain","26580 Arnedo (La Rioja)","falseguridad.es ","34941380800","info@falseguridad.es","Fal Calzados de Seguridad, S.A. 
Avda. de Logrono, 21 Bis 
26580 Arnedo (La Rioja), Spain
P.O. Box 26580
42 Arnedo (La Rioja), Spain","Anjali",NULL,"2025-06-25 14:13:20","2025-06-25 14:13:20"
"1234","FAZAL AHMED ENTERPRISES Muhammad Irfan","PAKISTAN","KARACHI"," http://www.fa-ent.com","92213028264646","efiirfan2004@gmail.com","FAZAL AHMED ENTERPRISES Muhammad Irfan
Plot~ 369, Sector 7/A, Korangi Industrial Area, 75660 Karachi
Pakistan","Anjali",NULL,"2025-06-25 14:13:20","2025-06-25 14:13:20"
"1235","Felix Trading BV","Netherlands","3606 AS Maarssen","felixrescue.com ","31346555622","info@felixtradingbv.nl","Felix Trading BV 
Industrieweg 36-04 
3606 AS Maarssen, Netherlands
P.O. Box 1063
3600 BB Maarssen, Netherlands","Anjali",NULL,"2025-06-25 14:13:20","2025-06-25 14:13:20"
"1236","FHB original GmbH & Co. KG","Germany","Blankenfohrweg 7-9, 32139 Spenge"," http://www.fhb.de","495225876444","info@fhb.de","FHB original GmbH & Co. KG
Blankenfohrweg 7-9, 32139 Spenge
Germany","Anjali",NULL,"2025-06-25 14:13:20","2025-06-25 14:13:20"
"1237","FISAT Fach- und Interessenverband für seilunterstützte Arbeitstechniken e.V.","Germany","Plautstr. 80, 04179 Leipzig"," http://www.fisat.de","4934155019092","info@fisat.de","FISAT Fach- und Interessenverband für seilunterstützte Arbeitstechniken e.V.
Plautstr. 80, 04179 Leipzig
Germany","Anjali",NULL,"2025-06-25 14:13:20","2025-06-25 14:13:20"
"1238","Footsure Western Ltd.","UK","GL2 4PH Gloucester","amblerssafety.com ","441452727301","exports@footsure.net","Footsure Western Ltd. 
Units F&G Quedgeley West Biz Park Bristol Road, Hardwicke
GL2 4PH Gloucester, United Kingdom","Anjali",NULL,"2025-06-25 14:13:20","2025-06-25 14:13:20"
"1239","FORTAL SAS","France","ZI du Muckental, 67140 Barr"," http://www.fortal.fr","333885853536","info@fortal.fr","FORTAL SAS
ZI du Muckental, 67140 Barr
France","Anjali",NULL,"2025-06-25 14:13:20","2025-06-25 14:13:20"
"1240","Fortune Protection Safety Ltd.","Hong kong","Central","fortunehongkong.com ","85225413813","thomas@fortunehongkong.com","Fortune Protection Safety Ltd. 
10th floor Unit A, Centre Mark II, No. 305 Queen's Road, Central
Central, China, Hongkong, Special Administrative Region","Anjali",NULL,"2025-06-25 14:13:20","2025-06-25 14:13:20"
"1241","Fortunetree International Ltd.","CHINA"," China","fallprotection.net.cn ","862163917228","annie@fortunetree.com","Fortunetree International Ltd. 
Unit 515-517, 5Fl., No. 23, Lane 466 Yindu Road
200001 Shanghai, China, People's Republic of","Anjali",NULL,"2025-06-25 14:13:20","2025-06-25 14:13:20"
"1242","Freie Gesundheitsberufe e.V. Dachverband für freie beratende und Gesundheit fördernde Berufe","Germany","Axel-Springer-Str. 54 B, 10117 Berlin"," http://www.freie-gesundheitsberufe.de","493098299422","info@freie-gesundheitsberufe.de","Freie Gesundheitsberufe e.V. Dachverband für freie beratende und Gesundheit fördernde Berufe
Axel-Springer-Str. 54 B, 10117 Berlin
Germany","Anjali",NULL,"2025-06-25 14:13:20","2025-06-25 14:13:20"
"1243","Friedrich Münch GmbH & Co. KG","Germany","In den Waldäckern 10, 75417 Mühlacker"," http://www.niroflex.de","49704195440","info@niroflex.de","Friedrich Münch GmbH & Co. KG
In den Waldäckern 10, 75417 Mühlacker
Germany","Anjali",NULL,"2025-06-25 14:13:20","2025-06-25 14:13:20"
"1244","FRISTADS AB","Sweden","Borås"," http://www.fristads.com","4633202200","kundservice.se@fristads.com","P.O. Box 1102, 50111 Borås Prognosgatan 24, 50464 Borås Sweden","Anjali",NULL,"2025-06-25 14:13:20","2025-06-25 14:13:20"
"1245","Fujian Cashion Garment Co., Ltd.","CHINA","FUZHOU, FUJIAN"," http://www.cashion-cn.com","8659187626836","sales@cashion-cn.com","Fujian Cashion Garment Co., Ltd.
25/F., Block A, Worldwide Plaza, No. 158 Wusi Road, 350003 Fuzhou, Fujian
China","Anjali",NULL,"2025-06-25 14:13:20","2025-06-25 14:13:20"
"1246","FUNCKE Sicherheitssysteme GmbH","Germany","Bilsteiner Str. 18, 57462 Olpe"," http://www.funcke-sicherheitssysteme.de","492761941870","info@funcke-sicherheitssysteme.de","FUNCKE Sicherheitssysteme GmbH
Bilsteiner Str. 18, 57462 Olpe
Germany","Anjali",NULL,"2025-06-25 14:13:20","2025-06-25 14:13:20"
"1247","G.B. INDUSTRIES SDN. BHD.","Malaysia"," Selangor Darul Ehsan","novax-intl.com ","60380238899","sales@gb-intl.com","G.B. INDUSTRIES SDN. BHD. 
No. 75-2, Jalan USJ 21/11 
47630 Subang Jaya, Selangor Darul Ehsan, Malaysia","Anjali",NULL,"2025-06-25 14:13:20","2025-06-25 14:13:20"
"1248","Galilee GmbH","Germany","Karl-Arnold-Str. 2, 47877 Willich"," http://www.galilee-web.de","4921545029369","info@galilee-web.de","Galilee GmbH
Karl-Arnold-Str. 2, 47877 Willich
Germany","Anjali",NULL,"2025-06-25 14:13:20","2025-06-25 14:13:20"
"1249","GAOMI LONGFEI SHOES CO.,LTD.","CHINA","GAOMI"," http://www.longfeixieye.com","865362850789","sales_longfei@163.com","GAOMI LONGFEI SHOES CO.,LTD.
1km North of Crossroad Phonix Street, and West Outer Ring Road, 261500 Gaomi
China","Anjali",NULL,"2025-06-25 14:13:20","2025-06-25 14:13:20"
"1250","Gas Clip Technologies Inc.","USA","TX","gascliptech.com ","19727757577","info@gascliptech.com","Gas Clip Technologies Inc. 
610 Uptown Blvd 
75104 Cedar Hill, TX, USA","Anjali",NULL,"2025-06-25 14:13:20","2025-06-25 14:13:20"
"1251","Gastec Corporation","Japan","252-1195 Kanagawa","gastec.co.jp ","81467793910","international@gastec.co.jp","Gastec Corporation 
8-8-6 Fukayanaka, Ayase-shi 
252-1195 Kanagawa, Japan","Anjali",NULL,"2025-06-25 14:13:20","2025-06-25 14:13:20"
"1252","GDG IMP. ART. BHP S.C.","POLAND","WARSZAWA"," http://www.derul.pl","48226190758","derul@wp.pl","GDG IMP. ART. BHP S.C.
Ul. Ks. Ziemowita 51A, 03-885 Warszawa
Poland","Anjali",NULL,"2025-06-25 14:13:20","2025-06-25 14:13:20"
"1253","Gebol Handelsgesellschaft m.b.H.","Austria","4470 Enns","gebol.at ","437223850850","office@gebol.at","Gebol Handelsgesellschaft m.b.H. 
Dr.-Körner-Str. 4 
4470 Enns, Austria","Anjali",NULL,"2025-06-25 14:13:20","2025-06-25 14:13:20"
"1254","Gebrüder Rensing GmbH","Germany","Bocholt"," http://www.rensing.de","4928712415600","info@rensing.de","Franzstr. 115, 46395 Bocholt Germany","Anjali",NULL,"2025-06-25 14:13:20","2025-06-25 14:13:20"
"1255","Gee WaWa Footwear LLC","USA","CA",,"12017142675813",,"Gee WaWa Footwear LLC
5161, Richton Street, 91763 Montclair, CA
USA","Anjali",NULL,"2025-06-25 14:13:20","2025-06-25 14:13:20"
"1256","GIASCO s.r.l.","Italy","36072 Chiampo","giasco.com ","390444624477","giasco@giasco.com","GIASCO s.r.l. 
Via Zaupa 50 
36072 Chiampo, Italy","Anjali",NULL,"2025-06-25 14:13:20","2025-06-25 14:13:20"
"1257","GLOVELAND TECHNOLOGY CO., LTD.","KOREA"," Korea","gloveok.com ","82549736680","gloveok@hotmail.com","GLOVELAND TECHNOLOGY CO., LTD. 
88, Haksang 1st Street, Gasan-myeo 
718-913 GyeongBuk, Korea, Republic","Anjali",NULL,"2025-06-25 14:13:20","2025-06-25 14:13:20"
"1258","Gloves n Gloves Partnership","Pakistan","54792 Lahore","gng.com.pk ","924237309680","info@gng.com.pk","Gloves n Gloves Partnership 
267-CCA, Phase 4 Commercial, D.H.A. 
54792 Lahore, Pakistan","Anjali",NULL,"2025-06-25 14:13:20","2025-06-25 14:13:20"
"1259","GQA Gesellschaft für Qualität im Arbeitsschutz mbH","Germany","Schiersteiner Str. 39, 65187 Wiesbaden"," http://www.gqa.de","496111575530","info@gqa.de","GQA Gesellschaft für Qualität im Arbeitsschutz mbH
Schiersteiner Str. 39, 65187 Wiesbaden
Germany","Anjali",NULL,"2025-06-25 14:13:20","2025-06-25 14:13:20"
"1260","GreatGuard Safety Pty Ltd","Australia","Melbourne"," http://www.greatguardsafety.com.au","61397297650","sales@greatguardsafety.com.au","Unit 7, 31 Hosie Street, Bayswater North, 3153 Melbourne Australia","Anjali",NULL,"2025-06-25 14:13:20","2025-06-25 14:13:20"
"1261","GREEN International Absturzsicherungs GmbH","Austria","Steyrermühl"," http://www.green-international.at","43761332498","office@green-international.at","Fabrikplatz 1/10, 4662 Steyrermühl Austria","Anjali",NULL,"2025-06-25 14:13:20","2025-06-25 14:13:20"
"1262","GREIFF Mode GmbH & Co. KG","Germany","Memmelsdorfer Str. 250, 96052 Bamberg"," http://www.greiff.de","499514050","info@greiff.de","GREIFF Mode GmbH & Co. KG
Postfach 100241, 96054 Bamberg 
Memmelsdorfer Str. 250, 96052 Bamberg
Germany","Anjali",NULL,"2025-06-25 14:13:20","2025-06-25 14:13:20"
"1263","GUANGZHOU JUNYUE FOAM EARPLUG CO., LTD.","CHINA"," China","noiless.com ","862037707572","em@noiless.com","GUANGZHOU JUNYUE FOAM EARPLUG CO., LTD. 
No.38 THE North of Lihong Road, FengshenRoad, Xinhua Street, Huadu District
510000 Guangzhou, China, People's Republic of","Anjali",NULL,"2025-06-25 14:13:20","2025-06-25 14:13:20"
"1264","Gustav Daiber GmbH","Germany","Vor dem Weißen Stein 25-31, 72461 Albstadt"," http://www.daiber.de","49743270160","info@daiber.de","Gustav Daiber GmbH
Vor dem Weißen Stein 25-31, 72461 Albstadt
Germany","Anjali",NULL,"2025-06-25 14:13:20","2025-06-25 14:13:20"
"1265","H. Hiendl GmbH & Co. KG","Germany","Industriestr. 5 + 6, 94327 Bogen"," http://www.serpa.de","49942285180","info@hiendl.de","H. Hiendl GmbH & Co. KG
Industriestr. 5 + 6, 94327 Bogen
Germany","Anjali",NULL,"2025-06-25 14:13:20","2025-06-25 14:13:20"
"1266","Hailo Wind Systems GmbH & Co. KG","Germany","Kalteiche-Ring 18, 35708 Haiger"," http://www.hailo-windsystems.com","492773821471",,"Hailo Wind Systems GmbH & Co. KG
Kalteiche-Ring 18, 35708 Haiger
Germany","Anjali",NULL,"2025-06-25 14:13:20","2025-06-25 14:13:20"
"1267","Hailo-Werk Rudolf Loh GmbH & Co. KG","Germany","Daimlerstr. 8, 35708 Haiger"," http://www.hailo-professional.de","492773820","info@hailo-professional.de","Hailo-Werk Rudolf Loh GmbH & Co. KG
Postfach 12 62, 35702 Haiger 
Daimlerstr. 8, 35708 Haiger
Germany","Anjali",NULL,"2025-06-25 14:13:20","2025-06-25 14:13:20"
"1268","HAIX®-Schuhe Produktions- und Vertriebs GmbH","Germany","Auhofstr. 10, 84048 Mainburg"," http://www.haix.com","49875186250","info@haix.de","HAIX®-Schuhe Produktions- und Vertriebs GmbH
Auhofstr. 10, 84048 Mainburg
Germany","Anjali",NULL,"2025-06-25 14:13:20","2025-06-25 14:13:20"
"1269","HAKRO GmbH","Germany","Oberstettener Str. 41, 74575 Schrozberg"," http://www.hakro.com","4979359118100","info@hakro.com","HAKRO GmbH
Postfach 25, 74573 Schrozberg 
Oberstettener Str. 41, 74575 Schrozberg
Germany","Anjali",NULL,"2025-06-25 14:13:20","2025-06-25 14:13:20"
"1270","Handy Man Enterprise Co., Ltd.","Taiwan","11493 Taipei","fall-protect.com ","886287976106","service@handy-man.com.tw","Handy Man Enterprise Co., Ltd. 
5F-1, No. 194, Jhouzih Street Neihu District
11493 Taipei, Taiwan","Anjali",NULL,"2025-06-25 14:13:20","2025-06-25 14:13:20"
"1271","HANVO JP CO., LTD.","Japan","1F, 1-17-14, Okubo, Shinjuku-ku, 169-0072 Tokyo"," http://www.hanvo.jp","81352915477","info@hanvo.jp","HANVO JP CO., LTD.
1F, 1-17-14, Okubo, Shinjuku-ku, 169-0072 Tokyo
Japan","Anjali",NULL,"2025-06-25 14:13:20","2025-06-25 14:13:20"
"1272","Harvik Rubber Industries Sdn. Bhd.","Malaysia"," Penang","harvik.com ","6043907550251","danielkooi@harvik.com","Harvik Rubber Industries Sdn. Bhd. 
1414, Lorong Perusahaan 4, (Off Jalan Perusahaan),Free Ind. Zone(1)
13600 Prai, Penang, Malaysia","Anjali",NULL,"2025-06-25 14:13:20","2025-06-25 14:13:20"
"1273","Hasont Trading GmbH","Germany","Scharpenbargsweg 5 F, 21149 Hamburg"," http://www.hasont.de","494023688708","info@hasont.de","Hasont Trading GmbH
Scharpenbargsweg 5 F, 21149 Hamburg
Germany","Anjali",NULL,"2025-06-25 14:13:20","2025-06-25 14:13:20"
"1274","Hazardtrainer GmbH","Germany","Lichterfelder Str. 5a, 21502 Geesthacht"," http://www.hazardtrainer.de","4941521594194","info@hazardtrainer.de","Hazardtrainer GmbH
Lichterfelder Str. 5a, 21502 Geesthacht
Germany","Anjali",NULL,"2025-06-25 14:13:20","2025-06-25 14:13:20"
"1275","Heilemann Sicherheitstechnik GmbH","Germany","Industriestr. 55, 75417 Mühlacker"," http://www.euroflex-safety.de","497041814160","info@euroflex-safety.de","Heilemann Sicherheitstechnik GmbH
Industriestr. 55, 75417 Mühlacker
Germany","Anjali",NULL,"2025-06-25 14:13:20","2025-06-25 14:13:20"
"1276","Heinrich Vorndamme OHG","Germany","Teichweg 6, 32805 Horn-Bad Meinberg"," http://www.isotemp.de","49523489660","info@isotemp.de","Heinrich Vorndamme OHG
Postfach 23 26, 32798 Horn-Bad Meinberg 
Teichweg 6, 32805 Horn-Bad Meinberg
Germany","Anjali",NULL,"2025-06-25 14:13:20","2025-06-25 14:13:20"
"1277","Helly Hansen Deutschland GmbH","Germany","Balanstr. 73 / Haus 10, 81541 München"," http://www.hhworkwear.com","4989200083482","workwear.ec@hellyhansen.com","Helly Hansen Deutschland GmbH
Balanstr. 73 / Haus 10, 81541 München
Germany","Anjali",NULL,"2025-06-25 14:13:20","2025-06-25 14:13:20"
"1278","Help Care Company ApS","Denmark","Industrivej 19, 8881 Thorso"," http://www.helpcarecompany.com","4522203064","info@helpcarecompany.dk","Help Care Company ApS
Industrivej 19, 8881 Thorso
Denmark [incl. Greenland]","Anjali",NULL,"2025-06-25 14:13:20","2025-06-25 14:13:20"
"1279","Hermann Sewerin GmbH","GERMANY","GÜTERSLOH"," http://www.sewerin.com","4952419340","info@sewerin.com","Hermann Sewerin GmbH
Robert-Bosch-Str. 3, 33334 Gütersloh
Germany","Anjali",NULL,"2025-06-25 14:13:20","2025-06-25 14:13:20"
"1280","HERWE GmbH","Germany","Kleines Feldlein 16-20, 74889 Sinsheim"," http://www.herwe.de","49726192810","info@herwe.de","HERWE GmbH
Kleines Feldlein 16-20, 74889 Sinsheim
Germany","Anjali",NULL,"2025-06-25 14:13:20","2025-06-25 14:13:20"
"1281","Heungje International Corp.","Korea","~102 Myeongnyun-ro, Jung-Gu, Daegu, Kore, 41962 Daegu"," http://www.hj-gloves.co.kr","82534260506","heungje@msn.com","Heungje International Corp.
~102 Myeongnyun-ro, Jung-Gu, Daegu, Kore, 41962 Daegu
Korea, Republic","Anjali",NULL,"2025-06-25 14:13:20","2025-06-25 14:13:20"
"1282","HIGH BEST SAFETY PROTECTIVE SUPPLIES COMPANY LIMITED","HONG KONG","KOWLOON"," http://www.highbest-safety.com","85228690680","info@highbest-safety.com","HIGH BEST SAFETY PROTECTIVE SUPPLIES COMPANY LIMITED
Flat B06 5/F Blk. B Wing Hin Fty Bldg., 31-33 Ng Fong St., San Po Kong, Kowloon
Hong Kong, China SAR","Anjali",NULL,"2025-06-25 14:13:20","2025-06-25 14:13:20"
"1283","Ho Cheng Safety Enterprise Co.,Ltd.","Taiwan","23865 Taipei County","hochengchob.com.tw ","886226880463","sales@hochengchob.com.tw","Ho Cheng Safety Enterprise Co.,Ltd. 
No.5, Alley 9, LAne 48, San Chun St Shulin City
23865 Taipei County, Taiwan","Anjali",NULL,"2025-06-25 14:13:20","2025-06-25 14:13:20"
"1284","Honest Safety Products Co., Ltd.","CHINA"," China","honestsafety.com ","862150585599","sales@honestsafety.com","Honest Safety Products Co., Ltd. 
Rm 2302, Baoan Tower, No 800 Dongfang Road, Pudong
200122 Shanghai, China, People's Republic of","Anjali",NULL,"2025-06-25 14:13:20","2025-06-25 14:13:20"
"1285","Hughes Safety Showers Ltd","UK"," Cheshire","hughes-safety-showers.co.uk ","441614306618","sales@hughes-safety-showers.co.uk","Hughes Safety Showers Ltd 
Whitefield Road, Bredbury 
SK6 2SS Stockport, Cheshire, United Kingdom","Anjali",NULL,"2025-06-25 14:13:20","2025-06-25 14:13:20"
"1286","Huihong (Nantong) Safety Products Co., Ltd.","CHINA"," China","glovehh.com ","8651384536066","zy@glovehh.com","Huihong (Nantong) Safety Products Co., Ltd. 
No. 98, Huaihe Road Rudong New Development Zone
226 400 Nantong Jiangsu, China, People's Republic of","Anjali",NULL,"2025-06-25 14:13:20","2025-06-25 14:13:20"
"1287","Hultafors Group AB","Sweden","517 96 Bollebygd","hultaforsgroup.com ","46337237400","info@hultaforsgroup.com","Hultafors Group AB 
Hultaforsvägen 21 
517 96 Bollebygd, Sweden
P.O. Box 38
517 21 Bollebygd, Sweden","Anjali",NULL,"2025-06-25 14:13:20","2025-06-25 14:13:20"
"1288","HUNIC GmbH","GERMANY","BAIERSBRONN"," http://hunic.de","497442608234","buchhaltung@hunic.de","HUNIC GmbH
Rosenplatz 3/2, 72270 Baiersbronn
Germany","Anjali",NULL,"2025-06-25 14:13:20","2025-06-25 14:13:20"
"1289","Hycare International Co. Ltd.","THAILAND","SONGKHLA"," http://www.hycare-int.com","6674552655","info@hycare-int.com","Hycare International Co. Ltd.
1197 Moo. 3 Asia Highway, Kuanlang Hatyai, 90110 Songkhla
Thailand","Anjali",NULL,"2025-06-25 14:13:20","2025-06-25 14:13:20"
"1290","Ihsan Sons (Pvt.) Ltd.","Pakistan","75700 KARACHI","ihsansafety.com ","92212576691217","gloves@ihsanpakistan.com","Ihsan Sons (Pvt.) Ltd. 
F207-Textile Avenue Off. Polytechnic College S.I.T.E.
75700 KARACHI, Pakistan","Anjali",NULL,"2025-06-25 14:13:20","2025-06-25 14:13:20"
"1291","IKAR GmbH","Germany","Nobelstr. 2, 36041 Fulda"," http://www.ikar-gmbh.de","4966122050","kontakt@ikar-gmbh.de","IKAR GmbH
Nobelstr. 2, 36041 Fulda
Germany","Anjali",NULL,"2025-06-25 14:13:20","2025-06-25 14:13:20"
"1292","IKK classic","Germany","Tannenstr.4 b, 01099 Dresden"," http://www.ikk-classic.de","4935142920",,"IKK classic
Tannenstr.4 b, 01099 Dresden
Germany","Anjali",NULL,"2025-06-25 14:13:20","2025-06-25 14:13:20"
"1293","Indian Inovatix Ltd.","India","AHMEDABAD"," http://www.indianinovatix.com","7940322966","info@indianinovatix.com","Indian Inovatix Ltd. 103 Sahajanand Complex, Shahibaug Road, 380004 Ahmedabad India","Anjali",NULL,"2025-06-25 14:13:20","2025-06-25 14:13:20"
"1294","Industrial Safety Products Pvt. Ltd.","India","700054 Kolkata","ispgloves.com ","3323430913","isp@vsnl.net","Industrial Safety Products Pvt. Ltd. 
P - 33 CIT Road Scheme VI M (S)
700054 Kolkata, India","Anjali",NULL,"2025-06-25 14:13:20","2025-06-25 14:13:20"
"1295","Industrial Zapatera S.A. PANTER","Spain","03360 Callosa de Segura (Alicante)","panter.es ","34965310613","panter@panter.es","Industrial Zapatera S.A. PANTER 
Carretera Catral km 2, s/n Aptdo. 9
03360 Callosa de Segura (Alicante), Spain","Anjali",NULL,"2025-06-25 14:13:20","2025-06-25 14:13:20"
"1296","Infraserv GmbH & Co. Höchst KG","Germany","Industriepark Höchst, 65926 Frankfurt a.m."," http://www.infraserv.com","4969305080497","kundenservice@infraserv.com","Infraserv GmbH & Co. Höchst KG
Industriepark Höchst, 65926 Frankfurt a.m.
Germany","Anjali",NULL,"2025-06-25 14:13:20","2025-06-25 14:13:20"
"1297","Ing. Hansjörg Kendler GmbH","Austria","6072 Lans","kendler.org ","435123779470","office@kendler.org","Ing. Hansjörg Kendler GmbH 
Römerstr. 163 a 
6072 Lans, Austria","Anjali",NULL,"2025-06-25 14:13:20","2025-06-25 14:13:20"
"1298","Innova Inc.","Canada","J2J 1A4 Granby","xtirpa.com ","14507771240","dpoissant@xtirpa.com","Innova Inc. 
1040 Boul Industriel 
J2J 1A4 Granby, Canada","Anjali",NULL,"2025-06-25 14:13:20","2025-06-25 14:13:20"
"1299","Innovative Gloves Co., Ltd.","THAILAND","HATYAI, SONGHKLA"," http://www.innovativeglove.com","6674502251",,"Innovative Gloves Co., Ltd.
830 Moo 4 Sanambin-Ban Klang Rd., Kuanlang, 90110 Hatyai, Songhkla
Thailand","Anjali",NULL,"2025-06-25 14:13:20","2025-06-25 14:13:20"
"1300","Institut für Arbeitsfähigkeit GmbH","Germany","Mainz"," http://www.arbeitsfaehig.com","4961316039840","gutentag@arbeitsfaehig.com","Fischtorplatz 23, 55116 Mainz Germany","Anjali",NULL,"2025-06-25 14:13:20","2025-06-25 14:13:20"
"1301","Institut für Betriebliche Gesundheitsförderung BGF GmbH","Germany","Neumarkt 35-37, 50667 Köln"," http://www.bgf-institut.de","4922127180159","info@bgf-institut.de","Institut für Betriebliche Gesundheitsförderung BGF GmbH
Neumarkt 35-37, 50667 Köln
Germany","Anjali",NULL,"2025-06-25 14:13:20","2025-06-25 14:13:20"
"1302","INTERNATIONAL PACIFIC INC.","USA","NY",,"12122199325","intl_pacific_inc@hotmail.com","INTERNATIONAL PACIFIC INC. 
15, East 40th Street, Rm.503 
10016 New York, USA","Anjali",NULL,"2025-06-25 14:13:20","2025-06-25 14:13:20"
"1303","International Powered Access Federation Ltd. (IPAF)","UK","LA7 7NU Cumbria","ipaf.org ","441539562444","deutschland@ipaf.org","International Powered Access Federation Ltd. (IPAF) 
Moss End Business Village 
LA7 7NU Cumbria, United Kingdom","Anjali",NULL,"2025-06-25 14:13:20","2025-06-25 14:13:20"
"1304","INVITALIS GmbH","Germany","Ferdinand-Braun-Str. 22, 85053 Ingolstadt"," http://www.invitalis.com","4984137078090","info@invitalis.com","INVITALIS GmbH
Ferdinand-Braun-Str. 22, 85053 Ingolstadt
Germany","Anjali",NULL,"2025-06-25 14:13:20","2025-06-25 14:13:20"
"1305","IRC Internacional de Redes y Cuerdas, S.A.","SPAIN","CALLOSA DE SEGURA (ALICANTE)"," http://www.ircsa.com","34965311762","info@ircsa.com","IRC Internacional de Redes y Cuerdas, S.A.
P.O. Box 111, 03360 Callosa de Segura (Alicante) 
Carretera Callosa-Catral Km 1,2, 03360 Callosa de Segura (Alicante)
Spain","Anjali",NULL,"2025-06-25 14:13:20","2025-06-25 14:13:20"
"1306","Ismont Textil & Berufsbekleidungs GmbH","GERMANY","DÜSSELDORF"," http://www.ismont.de","4921130155890","info@ismont.de","Ismont Textil & Berufsbekleidungs GmbH
Hüttenstr. 1, 40215 Düsseldorf
Germany","Anjali",NULL,"2025-06-25 14:13:20","2025-06-25 14:13:20"
"1307","iTOOLS I/S","DENMARK","ODDER"," http://itools.dk","4553533315","mail@itools.dk","iTOOLS I/S
Skovdalsvej 4, 8300 Odder
Denmark","Anjali",NULL,"2025-06-25 14:13:20","2025-06-25 14:13:20"
"1308","Jaffson Enterprises (Pvt) Ltd.","Pakistan","51310 Sialkot","jaffson.com ","92523542901","export@jafferson.com","Jaffson Enterprises (Pvt) Ltd. 
Saleem Town, Pasrur Road 
51310 Sialkot, Pakistan
P.O. Box 533
51310 Sialkot, Pakistan","Anjali",NULL,"2025-06-25 14:13:20","2025-06-25 14:13:20"
"1309","JAPA INTERNATIONAL LTD","UK","BIRMINGHAM"," http://www.uniform4u.co.uk","447581887777","sales@dailysafe.co.uk","JAPA INTERNATIONAL LTD
3 Boldmere Road, B73 5UY Birmingham
United Kingdom of Great Britain and Northern Ireland","Anjali",NULL,"2025-06-25 14:13:20","2025-06-25 14:13:20"
"1310","Javed Gloves (Pvt) Ltd","Pakistan","38000 Faisalabad","javedgloves.com ","92412693640","export@javedgloves.com","Javed Gloves (Pvt) Ltd 
Qadarabad Chowk Muradabad, G.M.Abad 
38000 Faisalabad, Pakistan","Anjali",NULL,"2025-06-25 14:13:20","2025-06-25 14:13:20"
"1311","Jedermann-Verlag GmbH","Germany","Mittelgewannweg 15, 69123 Heidelberg"," http://www.jedermann.de","49622114510","g.willen@jedermann.de","Jedermann-Verlag GmbH
Mittelgewannweg 15, 69123 Heidelberg
Germany","Anjali",NULL,"2025-06-25 14:13:20","2025-06-25 14:13:20"
"1312","Jinfuyu Industrial Co. Ltd.","Taiwan"," New Taipei City","jfymasks.com.tw ","886226902271","jfy@jfymasks.com.tw","Jinfuyu Industrial Co. Ltd. 
8F-2, No. 159, Sec. 1 Hsin Tai Wu Rd.
22175 Hsi-Chih City, New Taipei City, Taiwan","Anjali",NULL,"2025-06-25 14:13:20","2025-06-25 14:13:20"
"1313","Jinggongyi Hardware & Electrical Appliance Co., Ltd.","Hong kong","Room 01, 21/F, Prosper Commercial, Building, 9 Yin Chong Street, 999077 Hongkong"," http://www.terysafe.com","85281209905","terysafeshower@163.com","Jinggongyi Hardware & Electrical Appliance Co., Ltd.
Room 01, 21/F, Prosper Commercial, Building, 9 Yin Chong Street, 999077 Hongkong
China, Hongkong, Special Administrative Region","Anjali",NULL,"2025-06-25 14:13:20","2025-06-25 14:13:20"
"1314","JMP International Sp. z o.o.","Poland","85-449 Bydgoszcz","jmpinter.com ","48523719195","export@jmpinter.com","JMP International Sp. z o.o. 
ul. Czyzykowa 9 
85-449 Bydgoszcz, Poland","Anjali",NULL,"2025-06-25 14:13:20","2025-06-25 14:13:20"
"1315","JS GLOVES Szewczyk sp. j.","Poland","Królewska 23, 05-822 Milanówek"," http://www.js-gloves.eu","48227583498","biuro@js-gloves.pl","JS GLOVES Szewczyk sp. j.
Królewska 23, 05-822 Milanówek
Poland","Anjali",NULL,"2025-06-25 14:13:20","2025-06-25 14:13:20"
"1316","JUTEC Hitzeschutz und Isoliertechnik GmbH","Germany","Mellumstr. 23-25, 26125 Oldenburg"," http://www.jutec.com","49441300990","info@jutec.com","JUTEC Hitzeschutz und Isoliertechnik GmbH
Postfach 3020, 26020 Oldenburg 
Mellumstr. 23-25, 26125 Oldenburg
Germany","Anjali",NULL,"2025-06-25 14:13:20","2025-06-25 14:13:20"
"1317","KA CHUN GARMENT Co., Ltd.","CHINA"," China","kachun.com.cn ","8675723331223","info@kachun.com.cn","KA CHUN GARMENT Co., Ltd. 
No.40-45, Baichen Road, No.105 National Highway, Chencun,
528313 Foshan, China, People's Republic of","Anjali",NULL,"2025-06-25 14:13:20","2025-06-25 14:13:20"
"1318","KADEMATIC Seenotrettungsgeräte GmbH","Germany","ABC-Str. 16, 22880 Wedel"," http://www.kadematic.de","4941031211880","info@kadematic.de","KADEMATIC Seenotrettungsgeräte GmbH
ABC-Str. 16, 22880 Wedel
Germany","Anjali",NULL,"2025-06-25 14:13:20","2025-06-25 14:13:20"
"1319","Kaifeng Group Co. Ltd.","China"," Zhejiang","chinakaifeng.com ","8657987066376","sales@chinakaifeng.com","Kaifeng Group Co. Ltd. 
Huku Industrial Area 
321307 Yongkang, Zhejiang, China, People's Republic of","Anjali",NULL,"2025-06-25 14:13:20","2025-06-25 14:13:20"
"1320","KARASA GENERAL TRADING LLC","U.A.E.","DUBAI 44657","rameswar.com ","913322438725","meghna0811@gmail.com","KARASA GENERAL TRADING LLC 
Office 103, Albatten Bld Next to Remas Hotel Diera, Murshid Bazar
DUBAI 44657, United Arab Emirates
P.O. Box 44658
DUBAI 44657, United Arab Emirates","Anjali",NULL,"2025-06-25 14:13:20","2025-06-25 14:13:20"
"1321","KARIN Srl","Italy","20012 Cuggiono (Mi)","karin.it ","390238100383","info@karin.it","KARIN Srl 
Via De Agostini 43 
20012 Cuggiono (Mi), Italy","Anjali",NULL,"2025-06-25 14:13:20","2025-06-25 14:13:20"
"1322","Karlowsky Fashion GmbH","Germany","Am Stadtweg 2, 39164 Wanzleben-Börde OT Hohendodeleben"," http://www.karlowsky.de","493920491280","info@karlowsky.de","Karlowsky Fashion GmbH
Am Stadtweg 2, 39164 Wanzleben-Börde OT Hohendodeleben
Germany","Anjali",NULL,"2025-06-25 14:13:20","2025-06-25 14:13:20"
"1323","KATALYST TECHTEX LLP","India","New Delhi","kattex.com/","1141706796","umesh@kattex.com
","Unit 341, DLF Prime Towers, F79-80, Okhla Phase 1, 110020 New Delhi
India
","Anjali",NULL,"2025-06-25 14:13:20","2025-06-25 14:13:20"
"1324","Kaya Yapi San. ve Tic. A.S.","Turkey","41480 Kocaeli","kayasafety.com ","902626771900","export@kayasafety.com","Kaya Yapi San. ve Tic. A.S. 
GOSB 1000. Sk. No: 1015 Cayirova 
41480 Kocaeli, Turkey","Anjali",NULL,"2025-06-25 14:13:20","2025-06-25 14:13:20"
"1325","KIND Arbeitssicherheit GmbH","Germany","Berkhopstr. 3a, 30938 Großburgwedel"," http://www.kind-arbeitssicherheit.de","49513989940","info@kind-arbeitssicherheit.de","KIND Arbeitssicherheit GmbH
Postfach 12 63, 30928 Großburgwedel 
Berkhopstr. 3a, 30938 Großburgwedel
Germany","Anjali",NULL,"2025-06-25 14:13:20","2025-06-25 14:13:20"
"1326","KISTERS AG","GERMANY","DUISBURG"," http://ehs.kisters.de","4920337880","ehs@kisters.de","KISTERS AG
Arnold-Dehnen-Str. 49, 47138 Duisburg
Germany","Anjali",NULL,"2025-06-25 14:13:20","2025-06-25 14:13:20"
"1327","Kivanc Kimya San. ve Tic. A.S.","Turkey","34490 Ikitelli/ISTANBUL","kivancgroup.com ","902126712800","info@kivancgroup.com","Kivanc Kimya San. ve Tic. A.S. 
Ikitelli OSB Aykosan Kücük Sanayi Sitesi2. Kisim 5. Ada C Blok No:4
34490 Ikitelli/ISTANBUL, Turkey","Anjali",NULL,"2025-06-25 14:13:20","2025-06-25 14:13:20"
"1328","Klopman International SRL","Italy","03100 Frosinone","klopman.com ","390775298467","sales@klopman.com","Klopman International SRL 
Via Armando Vona N. 34 
03100 Frosinone, Italy","Anjali",NULL,"2025-06-25 14:13:20","2025-06-25 14:13:20"
"1329","Kohlbrat & Bunz GmbH","Austria","Loretostr. 4-8, 5550 Radstadt"," http://www.kohlbrat-bunz.com","43645271930","office@kohlbrat-bunz.com","Kohlbrat & Bunz GmbH
Loretostr. 4-8, 5550 Radstadt
Austria","Anjali",NULL,"2025-06-25 14:13:20","2025-06-25 14:13:20"
"1330","Koma Industrial Gloves Pte Ltd","Singapore","SINGAPORE"," http://www.komagloves.com.sg","6563655288","komaglov@singnet.com.sg","Koma Industrial Gloves Pte Ltd Block 16 Marsiling Industrial Est Rd. 9, #01-33, 739172 Singapore Singapore","Anjali",NULL,"2025-06-25 14:13:20","2025-06-25 14:13:20"
"1331","KRAUSE-Werk GmbH & Co. KG","Germany","Am Kreuzweg 3, 36304 Alsfeld"," http://www.krause-systems.com","4966317950","info@krause-systems.de","KRAUSE-Werk GmbH & Co. KG
Am Kreuzweg 3, 36304 Alsfeld
Germany","Anjali",NULL,"2025-06-25 14:13:20","2025-06-25 14:13:20"
"1332","Krusman Nödduschar AB","Sweden","Transformatorgatan 1, 721 37 Västeras"," http://www.krusman.com","4621149200","info@krusman.se","Krusman Nödduschar AB
Transformatorgatan 1, 721 37 Västeras
Sweden","Anjali",NULL,"2025-06-25 14:13:20","2025-06-25 14:13:20"
"1333","KS Glove Co., Ltd.","Korea"," Gyeongbuk","ksgloves.com ","82543311256","top@ksgloves.com","KS Glove Co., Ltd. 
No 596-3, Daejeon-Dong 
770-260 Yeongcheon City, Gyeongbuk, Korea, Republic","Anjali",NULL,"2025-06-25 14:13:20","2025-06-25 14:13:20"
"1334","KS Safety, Inc","USA","CA"," http://www.kssafety.com","16262505058","echosun@kssafety.com","KS Safety, Inc
713 W Duarte Rd., Unit G, Suite 833, 91007 Arcadia, CA
USA","Anjali",NULL,"2025-06-25 14:13:20","2025-06-25 14:13:20"
"1335","KSE-LIGHTS GmbH","Germany","Thüngenfeld 8, 58256 Ennepetal"," http://www.kse-lights.com","4923339824730","info@kse-lights.com","KSE-LIGHTS GmbH
Thüngenfeld 8, 58256 Ennepetal
Germany","Anjali",NULL,"2025-06-25 14:13:20","2025-06-25 14:13:20"
"1336","KYOUNGDO Co., Ltd.","KOREA"," Korea","kdss.co.kr ","827046934920","scmarketing@kdss.co.kr","KYOUNGDO Co., Ltd. 
27, Bunseong-ro, 557 beon-gil 
621-917 Gimhae-si, Korea, Republic","Anjali",NULL,"2025-06-25 14:13:20","2025-06-25 14:13:20"
"1337","Labbaik International (Partnership)","INDIA","KOLKATA, WEST BENGAL"," http://www.labbaikint.com","3322853503","info@labbaikint.com","Labbaik International (Partnership)
11/H, East Topsia Road, 700 046 Kolkata, West Bengal
India","Anjali",NULL,"2025-06-25 14:13:20","2025-06-25 14:13:20"
"1338","LaCont Umwelttechnik GmbH","Germany","Halberstädter Str. 20 A, 39435 Egeln"," http://www.lacont.de","493926898960","info@lacont.de","LaCont Umwelttechnik GmbH
Halberstädter Str. 20 A, 39435 Egeln
Germany","Anjali",NULL,"2025-06-25 14:13:20","2025-06-25 14:13:20"
"1339","Lakeland Industries Europe Ltd.","UK"," East Yorkshire","lakeland.com/europe ","441430478140","sales-europe@lakeland.com","Lakeland Industries Europe Ltd. 
Jet Park 2, 244 Main Road 
HU15 2PR Newport, East Yorkshire, United Kingdom","Anjali",NULL,"2025-06-25 14:13:20","2025-06-25 14:13:20"
"1340","LANCO Dr. Lange GmbH & Co. KG","Germany","Sure Wisch 6, 30625 Hannover"," http://www.lanco.eu","49511956870","info@lanco.eu","LANCO Dr. Lange GmbH & Co. KG
Sure Wisch 6, 30625 Hannover
Germany","Anjali",NULL,"2025-06-25 14:13:20","2025-06-25 14:13:20"
"1341","LANEX a.s.","Czech Republic","747 23 Bolatice","lanex.cz ","420553751334","lanex@lanex.cz","LANEX a.s. 
Hlucínská 96/1 
747 23 Bolatice, Czech Republic","Anjali",NULL,"2025-06-25 14:13:20","2025-06-25 14:13:20"
"1342","Layher Steigtechnik GmbH","Germany","Ochsenbacher Str. 56, 74363 Güglingen"," http://www.layher-steigtechnik.de","497135700","info@layher.com","Layher Steigtechnik GmbH
Ochsenbacher Str. 56, 74363 Güglingen
Germany","Anjali",NULL,"2025-06-25 14:13:20","2025-06-25 14:13:20"
"1343","LEATHER INTERNATIONAL SAFETY PRODUCTS PROPRIETORSHIP","India","Kolkata","lisafetyproducts.com/","3218278166","lisafetyproducts@live.com","Vill.-Krolberia, P.O.- Beyonta, Beside, Kolkata Leather Complex, 24 Parganas (S), 743502 Kolkata, W.B.
India
","Anjali",NULL,"2025-06-25 14:13:20","2025-06-25 14:13:20"
"1344","Leathertex Gloving (Pvt) Ltd.","Pakistan","54600 Lahore-Gulberg","leathertex.com.pk ","9242111556666","marketing@leathertex.com.pk","Leathertex Gloving (Pvt) Ltd. 
42 - Aurangzeb Block New Garden Town
54600 Lahore-Gulberg, Pakistan
P.O. Box 3171
54600 Lahore-Gulberg, Pakistan","Anjali",NULL,"2025-06-25 14:13:20","2025-06-25 14:13:20"
"1345","LEBON International S.à.r.l","Luxembourg","Eugène"," http://www.lebonprotection.com","35226493607","legrand.marine@lebonprotection.com","Bureau N° 9C Immeuble Laccolith, 20, rue Eugène Ruppert, 2453 Luxembourg Luxembourg","Anjali",NULL,"2025-06-25 14:13:20","2025-06-25 14:13:20"
"1346","LeiKoSi GmbH","GERMANY","KAISERSLAUTERN"," http://www.leikosi.com","4963141477716","Info@leikosi.de","LeiKoSi GmbH
Eselsfürther Bahnhof 1, 67657 Kaiserslautern
Germany","Anjali",NULL,"2025-06-25 14:13:20","2025-06-25 14:13:20"
"1347","Liberty Shoes Ltd.","India","132001 Karnal","warrior.co.in ","1842252533","exportsales@libertyshoes.com","Liberty Shoes Ltd. 
Liberty House, Liberty Road 
132001 Karnal, India
P.O. Box 103
132001 Karnal, India","Anjali",NULL,"2025-06-25 14:13:20","2025-06-25 14:13:20"
"1348","Linde Material Handling GmbH","Germany","Carl-von-Linde-Platz, 63743 Aschaffenburg"," http://www.linde-mh.de","496021990","info@linde-mh.de","Linde Material Handling GmbH
Carl-von-Linde-Platz, 63743 Aschaffenburg
Germany","Anjali",NULL,"2025-06-25 14:13:20","2025-06-25 14:13:20"
"1349","Louis Steitz Secura GmbH + Co. KG","Germany","Vorstadt 40, 67292 Kirchheimbolanden"," http://www.steitzsecura.de","49635240020","info@steitzsecura.com","Louis Steitz Secura GmbH + Co. KG
Vorstadt 40, 67292 Kirchheimbolanden
Germany","Anjali",NULL,"2025-06-25 14:13:20","2025-06-25 14:13:20"
"1350","M/S Owais Leather Industries Tahir Shafiq","Pakistan","74900 Karachi","owaisleather.com ","922135116309","owaisgloves@cyber.net.pk","M/S Owais Leather Industries Tahir Shafiq 
Plot No 503-502-501 Street No. 6 SECTOR 7-A Korangi Industrial Area
74900 Karachi, Pakistan","Anjali",NULL,"2025-06-25 14:13:20","2025-06-25 14:13:20"
"1351","Makrite Industries Inc.","Taiwan","TAIPEI"," http://www.makrite.com","886226982416","sales@makrite.com","Makrite Industries Inc. 11F-5, No. 79, Sec 1, Xintai 5th Rd., 221 Taipei Taiwan","Anjali",NULL,"2025-06-25 14:13:20","2025-06-25 14:13:20"
"1352","Mallcom (India) Ltd.","India","700 091 Kolkata","mallcomindia.com ","3340161020","sales@mallcomindia.com","Mallcom (India) Ltd. 
EN 12, Sector V , Salt Lake Salt Lake City
700 091 Kolkata, India","Anjali",NULL,"2025-06-25 14:13:20","2025-06-25 14:13:20"
"1353","Manufacturas Vinilicas S.L.","Spain","31230 Viana (Navarra)","mavinsa.es ","34948645200","info@mavinsa.com","Manufacturas Vinilicas S.L. 
Ctra. Recajo 22 
31230 Viana (Navarra), Spain","Anjali",NULL,"2025-06-25 14:13:20","2025-06-25 14:13:20"
"1354","MAPA SAS","FRANCE","COLOMBES"," http://www.mapa-pro.com","33616963401",,"MAPA SAS
420, rue D'Estiennes D'Orves, 92705 Colombes
France","Anjali",NULL,"2025-06-25 14:13:20","2025-06-25 14:13:20"
"1355","Marlow Ropes Ltd.","UK"," East Sussex","marlowropes.com ","441323444444","sales@marlowropes.com","Marlow Ropes Ltd. 
Ropemaker Park, Diplocks Way 
BN27 3GU Hailsham, East Sussex, United Kingdom","Anjali",NULL,"2025-06-25 14:13:20","2025-06-25 14:13:20"
"1356","Marst Safety Equipment (Tianjin) Co., Ltd.","China","TIANJIN"," http://www.chinawelken.com","862288823319","welken@chinawelken.com","Marst Safety Equipment (Tianjin) Co., Ltd. No. 36, Fagang South Road, Shuanggang Town, Jinnan District, 300350 Tianjin China","Anjali",NULL,"2025-06-25 14:13:20","2025-06-25 14:13:20"
"1357","Martin Technical, Inc.","USA","CO",,"17202053244","sales@martechnical.com","Martin Technical, Inc.
8795 Ralston Road ~245, 80002 Arvada, CO
USA","Anjali",NULL,"2025-06-25 14:13:20","2025-06-25 14:13:20"
"1358","MARTOR KG","Germany","Heider Hof 60, 42653 Solingen"," http://www.martor.com","49212258050","info@martor.de","MARTOR KG
Heider Hof 60, 42653 Solingen
Germany","Anjali",NULL,"2025-06-25 14:13:20","2025-06-25 14:13:20"
"1359","Mascot International A/S","Denmark","8600 Silkeborg","mascot.dk ","4587244742","info@mascot.dk","Mascot International A/S 
Julsøvej 100 
8600 Silkeborg, Denmark [incl. Greenland]","Anjali",NULL,"2025-06-25 14:13:20","2025-06-25 14:13:20"
"1360","Max concept Development PTE. LTD","Singapore","SINGAPORE"," http://www.u-luxe.com","6567114966",,"Max concept Development PTE. LTD 152, Beach Road, #14-03 Gateway East,, 189721 Singapore Singapore","Anjali",NULL,"2025-06-25 14:13:20","2025-06-25 14:13:20"
"1361","Medz Southeast Asia Sdn Bhd","Malaysia","SUBANG JAYA"," http://www.medz-europe.com","60386014909","info@medz-sea.com","Medz Southeast Asia Sdn Bhd
N-08-22, First Subang, Jalan SS 15/4G, 47500 Subang Jaya
Malaysia","Anjali",NULL,"2025-06-25 14:13:20","2025-06-25 14:13:20"
"1362","Mehlhose Antirutschprodukte GmbH","Germany","Gutedelstr. 38-42, 79418 Schliengen"," http://www.mehlhose.de","497635827150","info@mehlhose.de","Mehlhose Antirutschprodukte GmbH
Gutedelstr. 38-42, 79418 Schliengen
Germany","Anjali",NULL,"2025-06-25 14:13:20","2025-06-25 14:13:20"
"1363","Meißner Sicherheitstechnik GmbH","Germany","August-Nagel-Str. 21, 89079 Ulm-Einsingen"," http://www.meissner-ulm.de","49730596350","info@meissner-ulm.de","Meißner Sicherheitstechnik GmbH
August-Nagel-Str. 21, 89079 Ulm-Einsingen
Germany","Anjali",NULL,"2025-06-25 14:13:20","2025-06-25 14:13:20"
"1364","Mekap Deri ve Ayakkabi San. Tic A.S.","TURKEY","TRABZON"," http://www.mekap.com","904627114335","info@mekap.com","Mekap Deri ve Ayakkabi San. Tic A.S.
P.O. Box 61, 61900 Trabzon 
Organize Sanayi Bölgesi 8 Cadde No. 3, Arsin, 61900 Trabzon
Turkey","Anjali",NULL,"2025-06-25 14:13:20","2025-06-25 14:13:20"
"1365","Metrax GmbH","Germany","Rheinwaldstr. 22, 78628 Rottweil"," http://www.primedic.com","497412570","info@primedic.com","Metrax GmbH
Rheinwaldstr. 22, 78628 Rottweil
Germany","Anjali",NULL,"2025-06-25 14:13:20","2025-06-25 14:13:20"
"1366","Mexpo International Inc.","USA","CA"," http://www.blossom-disposables.com","15104896800","exhibition@mexpo-glove.com","Mexpo International Inc.
2828 Faber Street, 94587 Union City, CA
USA","Anjali",NULL,"2025-06-25 14:13:20","2025-06-25 14:13:20"
"1367","MHS International (UK) Ltd","UK"," Lancs","mhs-international.com ","448450678777","sales@mhs-international.com","MHS International (UK) Ltd 
New Hall Hey Road 
BB4 6HL Rossendale, Lancs, United Kingdom","Anjali",NULL,"2025-06-25 14:13:20","2025-06-25 14:13:20"
"1368","Miguel Miranda S.L.","Spain","28031 Madrid","miguelmiranda.net ","34913802750","ventas@miguelmiranda.net","Miguel Miranda S.L. 
Luis I 76 Pol. Ind. Vallecas 
28031 Madrid, Spain","Anjali",NULL,"2025-06-25 14:13:21","2025-06-25 14:13:21"
"1369","MILTEX GmbH","Germany","Ohmstr. 2, 68519 Viernheim"," http://www.miltex.de","496204708690","info@miltex.de","MILTEX GmbH
Postfach 14 20, 68504 Viernheim 
Ohmstr. 2, 68519 Viernheim
Germany","Anjali",NULL,"2025-06-25 14:13:21","2025-06-25 14:13:21"
"1370","Mittelmann Sicherheitstechnik GmbH & Co. KG","Germany","Bessemerstr. 25, 42551 Velbert"," http://www.mittelmann.com","4920519121900","info@mittelmann.com","Mittelmann Sicherheitstechnik GmbH & Co. KG
Bessemerstr. 25, 42551 Velbert
Germany","Anjali",NULL,"2025-06-25 14:13:21","2025-06-25 14:13:21"
"1371","Moldex-Metric AG & Co. KG","Germany","Tübinger Str. 50, 72141 Walddorfhäslach"," http://www.moldex-europe.com","497127810102","info@moldex-europe.com","Moldex-Metric AG & Co. KG
Tübinger Str. 50, 72141 Walddorfhäslach
Germany","Anjali",NULL,"2025-06-25 14:13:21","2025-06-25 14:13:21"
"1372","Mottez S.A.","FRANCE","ERQUINGHEM/LYS."," http://www.mottez.com","3332010378","export@mottez.com","Mottez S.A.
Rue des Freres Mahieu, 59193 Erquinghem/Lys.
France","Anjali",NULL,"2025-06-25 14:13:21","2025-06-25 14:13:21"
"1373","MPL SL","SPAIN","SANTA EULALIA DE RONÇANA"," http://mplsl.eu","34931024003","mpl@mplsl.eu","MPL SL
Carles Buigas Nau 86 P.i. CAN Magre, 08187 Santa Eulalia de Ronçana
Spain","Anjali",NULL,"2025-06-25 14:13:21","2025-06-25 14:13:21"
"1374","MS Textilhandel e.K Inh. Sohail Mushtaq","Germany","Siemensstr.2, 76316 Malsch"," http://www.mus-textilhndel.de","497246946270","ms-textilhandel@t-online.de","MS Textilhandel e.K Inh. Sohail Mushtaq
Siemensstr.2, 76316 Malsch
Germany","Anjali",NULL,"2025-06-25 14:13:21","2025-06-25 14:13:21"
"1375","MSA Deutschland GmbH","Germany","Thiemannstr. 1, 12059 Berlin"," http://www.msasafety.com","493068860","info.de@msasafety.com","MSA Deutschland GmbH
Thiemannstr. 1, 12059 Berlin
Germany","Anjali",NULL,"2025-06-25 14:13:21","2025-06-25 14:13:21"
"1376","Naaz Exports Pvt. Ltd.","India","208 010 Kanpur","naazexports.com ","5122462330","naazexportinc@gmail.com","Naaz Exports Pvt. Ltd. 
14-A, 150 Feet Road, Jajmau 
208 010 Kanpur, India","Anjali",NULL,"2025-06-25 14:13:21","2025-06-25 14:13:21"
"1377","Nanjing KELISAIKE Safety Equipment Co., Ltd.","CHINA","NANJING"," http://www.njklsk.cn","862587193262","Manager@njklsk.cn","Nanjing KELISAIKE Safety Equipment Co., Ltd.
No. 9 Gaohu Road, 211100 Nanjing
China","Anjali",NULL,"2025-06-25 14:13:21","2025-06-25 14:13:21"
"1378","Nantong Jiadeli Safety Products Co., Ltd.","CHINA"," China","jdlsafety.com ","862161372112","aimee.zhao@jdlsafety.com","Nantong Jiadeli Safety Products Co., Ltd. 
Shuangdian Industrial Park C, Rudong County, Jiangsu Province
226404 Nantong, China, People's Republic of","Anjali",NULL,"2025-06-25 14:13:21","2025-06-25 14:13:21"
"1379","Narda Safety Test Solutions GmbH","Germany","Sandwiesenstr. 7, 72793 Pfullingen"," http://www.narda-sts.com","49712197320","info.narda-de@l3t.com","Narda Safety Test Solutions GmbH
Sandwiesenstr. 7, 72793 Pfullingen
Germany","Anjali",NULL,"2025-06-25 14:13:21","2025-06-25 14:13:21"
"1380","National Factory for Safety & Security Products L.L.C","U.A.E.","Abu Dhabi"," http://www.nfssp.com","9715511116","info@nfssp.com","Plot No. 139, SR-59, ICAD 3, 92777 Abu Dhabi United Arab Emirates","Anjali",NULL,"2025-06-25 14:13:21","2025-06-25 14:13:21"
"1381","Naz Leather Industries Partnership","Pakistan","3-B Small Industrial Estate, 51310 Sialkot"," http://www.nazleather.com","92523255397","naz@skt.comsats.net.pk","Naz Leather Industries Partnership
P.O. Box 1351, 51310 Sialkot 
3-B Small Industrial Estate, 51310 Sialkot
Pakistan","Anjali",NULL,"2025-06-25 14:13:21","2025-06-25 14:13:21"
"1382","Niebling Technische Bürsten GmbH","Germany","BURGBERNHEIM"," http://www.niebling.com","49984398940","vertrieb@niebling.com","Niebling Technische Bürsten GmbH Industriestr. 12, 91593 Burgbernheim Germany","Anjali",NULL,"2025-06-25 14:13:21","2025-06-25 14:13:21"
"1383","Nierhaus GmbH","Germany","Herforder Str. 145, 32105 Bad Salzuflen"," http://www.nierhaus-knieschoner.de","49522259459","nierhaus@nierhaus.de","Nierhaus GmbH
Postfach 570, 32067 Bad Salzuflen 
Herforder Str. 145, 32105 Bad Salzuflen
Germany","Anjali",NULL,"2025-06-25 14:13:21","2025-06-25 14:13:21"
"1384","Nordwest Handel AG","Germany","Dortmund"," http://www.kompass-arbeitsschutz.de","4923122224130","info@kompass-arbeitsschutz.de","Robert-Schuman-Str. 17, 44263 Dortmund Germany","Anjali",NULL,"2025-06-25 14:13:21","2025-06-25 14:13:21"
"1385","Northdocks GmbH","Germany","MONHEIM"," http://www.northdocks.com","4943126098621","info@northdocks.com","Northdocks GmbH Heinestr. 3, 40789 Monheim Germany","Anjali",NULL,"2025-06-25 14:13:21","2025-06-25 14:13:21"
"1386","NOVAP SAS","France","01100 Oyonnax","wwwnovap.fr ","33474812600","contact@novap.fr","NOVAP SAS 
59, rue Brillat Savarin 
01100 Oyonnax, France
P.O. Box BP130
01104 Oyonnax, France","Anjali",NULL,"2025-06-25 14:13:21","2025-06-25 14:13:21"
"1387","OSMA TrockNERsysteme GmbH","Austria","9821 Obervellach","osma.at ","4347822910","office@osma.at","OSMA TrockNERsysteme GmbH 
Untervocken 15 
9821 Obervellach, Austria","Anjali",NULL,"2025-06-25 14:13:21","2025-06-25 14:13:21"
"1388","OXYLINE Sp. z o.o.","Poland","95-200 Pabianice","oxyline.eu ","48422151068","oxyline@oxyline.eu","OXYLINE Sp. z o.o. 
ul. Pilsudskiego 23 
95-200 Pabianice, Poland","Anjali",NULL,"2025-06-25 14:13:21","2025-06-25 14:13:21"
"1389","PANTHER s.r.l.","Italy","35024 Bovolenta (PD)","panthersafety.it ","390499713211","info@panthersafety.it","PANTHER s.r.l. 
Via Egidio Berto, 2 
35024 Bovolenta (PD), Italy","Anjali",NULL,"2025-06-25 14:13:21","2025-06-25 14:13:21"
"1390","Parvez Shoes Pvt. Ltd.","India","208010 Kanpur","parvezshoes.com ","5122461203","parvez@parvezshoes.com","Parvez Shoes Pvt. Ltd. 
150 Ft. Road, Jajmau 
208010 Kanpur, India","Anjali",NULL,"2025-06-25 14:13:21","2025-06-25 14:13:21"
"1391","Paul H. Kübler Bekleidungswerk GmbH & Co. KG","Germany","Jakob-Schüle-Str. 11-25, 73655 Plüderhausen"," http://www.kuebler.eu","49718180030","info@kuebler.eu","Paul H. Kübler Bekleidungswerk GmbH & Co. KG
Jakob-Schüle-Str. 11-25, 73655 Plüderhausen
Germany","Anjali",NULL,"2025-06-25 14:13:21","2025-06-25 14:13:21"
"1392","Paul Voormann GmbH","Germany","Siemensstr. 42, 42551 Velbert"," http://www.paul-voormann.de","49205122086","info@paul-voormann.de","Paul Voormann GmbH
Postfach 101366, 42513 Velbert 
Siemensstr. 42, 42551 Velbert
Germany","Anjali",NULL,"2025-06-25 14:13:21","2025-06-25 14:13:21"
"1393","PBI Performance Products, Inc.","Germany","Im Gewerbepark D 23, 93059 Regensburg"," http://www.pbiproducts.com","4994146527599","international@pbiproducts.com","PBI Performance Products, Inc.
Im Gewerbepark D 23, 93059 Regensburg
Germany","Anjali",NULL,"2025-06-25 14:13:21","2025-06-25 14:13:21"
"1394","PCH Technischer Handel GmbH","Germany","Wetzlarer Str. 14, 14482 Potsdam"," http://www.pch-24.de","493317093311","s.elten@pch-24.de","PCH Technischer Handel GmbH
Wetzlarer Str. 14, 14482 Potsdam
Germany","Anjali",NULL,"2025-06-25 14:13:21","2025-06-25 14:13:21"
"1395","Peli Products Germany GmbH","Germany","Düsseldorf Kö-Bogen Business Center, Königsallee 2b, 5th Floor, 40212 Düsseldorf"," http://www.peli.com","4921188242401","info@peli.com","Peli Products Germany GmbH
Düsseldorf Kö-Bogen Business Center, Königsallee 2b, 5th Floor, 40212 Düsseldorf
Germany","Anjali",NULL,"2025-06-25 14:13:21","2025-06-25 14:13:21"
"1396","Perf Italia Srl.","Italy","76121 Barletta (BT)","perf-safety.com ","390883506663","info@perf-safety.it","Perf Italia Srl. 
Via Callano 161/163 
76121 Barletta (BT), Italy","Anjali",NULL,"2025-06-25 14:13:21","2025-06-25 14:13:21"
"1397","pervormance international GmbH","Germany","Mühlsteige 13, 89075 Ulm"," http://www.e-cooline.de","49731140710","info@e-cooline.de","pervormance international GmbH
Mühlsteige 13, 89075 Ulm
Germany","Anjali",NULL,"2025-06-25 14:13:21","2025-06-25 14:13:21"
"1398","Peter Greven Physioderm GmbH","Germany","Procter-&-Gamble-Str. 26, 53881 Euskirchen"," http://www.pgp-hautschutz.de","492251776170","info@pgp-hautschutz.de","Peter Greven Physioderm GmbH
Procter-&-Gamble-Str. 26, 53881 Euskirchen
Germany","Anjali",NULL,"2025-06-25 14:13:21","2025-06-25 14:13:21"
"1399","PEZZOL INDUSTRIES srl","Italy","76121 Barletta","pezzol.com ","390883349104","a.dargenio@pezzol.com","PEZZOL INDUSTRIES srl 
Via Trani, 107 
76121 Barletta, Italy","Anjali",NULL,"2025-06-25 14:13:21","2025-06-25 14:13:21"
"1400","Pfanner Schutzbekleidung GmbH","Austria","6845 Hohenems","pfanner-austria.at ","43595050200","info@pfanner-austria.at","Pfanner Schutzbekleidung GmbH 
Marktstr. 40 
6845 Hohenems, Austria","Anjali",NULL,"2025-06-25 14:13:21","2025-06-25 14:13:21"
"1401","Pilot GmbH Chemie-Technik","Germany","Steinhof 37, 40699 Erkrath"," http://www.pilotgmbh.com","49211924020","info@pilotgmbh.com","Pilot GmbH Chemie-Technik
Steinhof 37, 40699 Erkrath
Germany","Anjali",NULL,"2025-06-25 14:13:21","2025-06-25 14:13:21"
"1402","Pionier Berufskleidung GmbH","Germany","Bielefelder Str. 236, 32051 Herford"," http://www.pionier-workwear.com","495221979400","pionier-workwear@pionier-workwear.com","Pionier Berufskleidung GmbH
Bielefelder Str. 236, 32051 Herford
Germany","Anjali",NULL,"2025-06-25 14:13:21","2025-06-25 14:13:21"
"1403","PLANAM Arbeitsschutz Vertriebs GmbH","Germany","Letter Str. 50, 33442 Herzebrock Clarholz"," http://www.planam.de","49524586060","info@planam.de","PLANAM Arbeitsschutz Vertriebs GmbH
Postfach 13 62, 33435 Herzebrock Clarholz 
Letter Str. 50, 33442 Herzebrock Clarholz
Germany","Anjali",NULL,"2025-06-25 14:13:21","2025-06-25 14:13:21"
"1404","PM Atemschutz GmbH","Germany","Willicher Damm 99, 41066 Mönchengladbach"," http://www.pm-atemschutz.de","492161402900","info@pm-atemschutz.de","PM Atemschutz GmbH
Willicher Damm 99, 41066 Mönchengladbach
Germany","Anjali",NULL,"2025-06-25 14:13:21","2025-06-25 14:13:21"
"1405","Portwest Ltd","IRELAND","WEST PORT"," http://www.portwest.com","3539851700","info@portwest.com","Portwest Ltd
IDA Business Park, F28 FY88 West Port
Ireland","Anjali",NULL,"2025-06-25 14:13:21","2025-06-25 14:13:21"
"1406","PPO Przedsiebiorstwo Panstwowe","POLAND","STRZELCE OPOLSKIE"," http://ppo.pl","48774049440","sekretariat@ppo.pl","PPO Przedsiebiorstwo Panstwowe
Dworcowa 25, 47-100 Strzelce Opolskie
Poland","Anjali",NULL,"2025-06-25 14:13:21","2025-06-25 14:13:21"
"1407","Preising GmbH & Co. KG","Germany","Dohrgauler Str. 22, 51688 Wipperfürth"," http://www.preising.net","492269288","info@preising.net","Preising GmbH & Co. KG
Dohrgauler Str. 22, 51688 Wipperfürth
Germany","Anjali",NULL,"2025-06-25 14:13:21","2025-06-25 14:13:21"
"1408","President Safety BV","NETHERLANDS","HELLEVOETSLUIS"," http://www.presidentsafety.nl","31181878000","sales@presidentsafety.nl","President Safety BV
P.O. Box 100, 3220 AC Hellevoetsluis 
Marconiweg 16A, 3225 LV Hellevoetsluis
Netherlands","Anjali",NULL,"2025-06-25 14:13:21","2025-06-25 14:13:21"
"1409","PROCOVES SAS","FRANCE","SEMUR-EN-AUXOIS"," http://www.wleiprocoves.com","33380899340","contact@wleiprocoves.com","PROCOVES SAS
11 bis, avenue du Général Mazillier, 21140 Semur-en-Auxois
France","Anjali",NULL,"2025-06-25 14:13:21","2025-06-25 14:13:21"
"1410","Prohero Group Co. Ltd.","Taiwan","Tainan","proheroeyewear.com ","88663840100",,"Prohero Group Co. Ltd. 
No. 399, Pen Tian Rd., Sec, 2 
Tainan, Taiwan","Anjali",NULL,"2025-06-25 14:13:21","2025-06-25 14:13:21"
"1411","Promodoro Fashion GmbH","Germany","Am Gatherhof 57, 40472 Düsseldorf"," http://www.promodoro.de","49211909000","info@promodoro.de","Promodoro Fashion GmbH
Am Gatherhof 57, 40472 Düsseldorf
Germany","Anjali",NULL,"2025-06-25 14:13:21","2025-06-25 14:13:21"
"1412","Protective Industrial Products, Inc.","USA","NY"," http://www.pipglobal.com","15185951013","sales@pipusa.com","Protective Industrial Products, Inc.
968, Albany Shaker Road, 12110 Latham
USA","Anjali",NULL,"2025-06-25 14:13:21","2025-06-25 14:13:21"
"1413","Pyramid Technology (Canada) Ltd","CANADA","SURREY, BC"," http://www.pyramidtechnology.net","16049990962","info@pyramidtechnology.net","Pyramid Technology (Canada) Ltd
14788 31st Ave., V4P 3E7 Surrey, BC
Canada","Anjali",NULL,"2025-06-25 14:13:21","2025-06-25 14:13:21"
"1414","QINGDAO DEXING PROTECTIVE PRODUCTS CO., LTD","China","Qingdao"," http://www.dexsafety.com","8653285839372",,"Room C6-06A, 16th Floor, No. 52 Hongkong Middle Road, Shinan, 266071 Qingdao, Shandong China","Anjali",NULL,"2025-06-25 14:13:21","2025-06-25 14:13:21"
"1415","QuantaCorp NV","BELGIUM","SINT-DENIJSGENT"," http://www.quantacorp.io","3292981589","info@quantacorp.io","QuantaCorp NV
Amelia Earhartlaan 17, 9051 Sint-Denijsgent
Belgium","Anjali",NULL,"2025-06-25 14:13:21","2025-06-25 14:13:21"
"1416","Rama Overseas Ltd.","India","700039 Kolkata","ramaoverseasltd.com ","3323438118","info@ramaoverseasltd.com","Rama Overseas Ltd. 
5/1D Tiljala Road (Near Bondel Gate)
700039 Kolkata, India","Anjali",NULL,"2025-06-25 14:13:21","2025-06-25 14:13:21"
"1417","Reliance Medical Ltd.","UK","The Radnor Building, Radnor Park Trading Estate, Back Lane, CW12 4XP Congleton, Cheshire"," http://www.reliancemedical.co.uk","448456448808","sales@reliancemedical.co.uk","Reliance Medical Ltd.
The Radnor Building, Radnor Park Trading Estate, Back Lane, CW12 4XP Congleton, Cheshire
United Kingdom","Anjali",NULL,"2025-06-25 14:13:21","2025-06-25 14:13:21"
"1418","Respirex GmbH","Germany","Wilthener Str. 32, 02625 Bautzen"," http://www.respirex.de","4935915311290","info@respirex.de","Respirex GmbH
Wilthener Str. 32, 02625 Bautzen
Germany","Anjali",NULL,"2025-06-25 14:13:21","2025-06-25 14:13:21"
"1419","Rexholm A/S","Denmark","7500 Holstebro","id.dk ","4597492144","order@id.dk","Rexholm A/S 
Laegaardvej 138 
7500 Holstebro, Denmark [incl. Greenland]","Anjali",NULL,"2025-06-25 14:13:21","2025-06-25 14:13:21"
"1420","RidgeGear Ltd.","UK","LEEK, STAFFORDSHIRE"," http://www.ridgegear.com","441538384108","sales@ridgegear.com","RidgeGear Ltd.
Nelson Street, ST13 6BB Leek, Staffordshire
United Kingdom of Great Britain and Northern Ireland","Anjali",NULL,"2025-06-25 14:13:21","2025-06-25 14:13:21"
"1421","RIKEN KEIKI GmbH","GERMANY","ESCHBORN"," http://www.rikenkeikigmbh.de","4961967768451","info@rikenkeikigmbh.de","RIKEN KEIKI GmbH
Mergenthalerallee 77, 65760 Eschborn
Germany","Anjali",NULL,"2025-06-25 14:13:21","2025-06-25 14:13:21"
"1422","Rio Lindo, JSC","LATVIA","VILNIUS"," http://youniformer.com","37068442028","info@youniformer.com","Rio Lindo, JSC
Šaltiniu St. 11, 03214 Vilnius
Lithuania","Anjali",NULL,"2025-06-25 14:13:21","2025-06-25 14:13:21"
"1423","RMS GmbH","GERMANY","REMSCHEID"," http://www.risk-project.de","4921916960640","info@risk-project.de","RMS GmbH
Sandkuhlstr. 6, 42853 Remscheid
Germany","Anjali",NULL,"2025-06-25 14:13:21","2025-06-25 14:13:21"
"1424","Rofa Bekleidungswerk GmbH & Co. KG","Germany","Fabrikstr. 23, 48465 Schüttorf"," http://www.rofa.de","4959238980","info@rofa.de","Rofa Bekleidungswerk GmbH & Co. KG
Fabrikstr. 23, 48465 Schüttorf
Germany","Anjali",NULL,"2025-06-25 14:13:21","2025-06-25 14:13:21"
"1425","Rossini Trading Spa","ITALY","SERIATE (BG)"," http://rossinitrading.it","39035312696","commerciale@rossinitrading.it","Rossini Trading Spa
Via Pastrengo 7M/9, 24068 Seriate (BG)
Italy","Anjali",NULL,"2025-06-25 14:13:21","2025-06-25 14:13:21"
"1426","Royer Inc.","Canada","G0Y 1C0 Lac-Drolet QC","royer.com ","18195492100","client@royer.com","Royer Inc. 
712 rue Principale 
G0Y 1C0 Lac-Drolet QC, Canada
P.O. Box 160
G0Y 1C0 Lac-Drolet QC, Canada","Anjali",NULL,"2025-06-25 14:13:21","2025-06-25 14:13:21"
"1427","rs-etiketten & embleme GmbH","Germany","Auweg 16b, 63920 Großheubach"," http://www.rs-etiketten.de","499371668000","info@rs-etiketten.de","rs-etiketten & embleme GmbH
Auweg 16b, 63920 Großheubach
Germany","Anjali",NULL,"2025-06-25 14:13:21","2025-06-25 14:13:21"
"1428","Rubberex (M) Sdn Bhd (Pvt Ltd)","Malaysia","Lot 138201, Off 3/4 Mile, Jalan Bercham,Kawasan Perindustrian Bercham, 31400 Ipoh, Perak"," http://www.rubberex.com.my","6055482723","rubberex@rubberex.com.my","Rubberex (M) Sdn Bhd (Pvt Ltd)
Lot 138201, Off 3/4 Mile, Jalan Bercham,Kawasan Perindustrian Bercham, 31400 Ipoh, Perak
Malaysia","Anjali",NULL,"2025-06-25 14:13:21","2025-06-25 14:13:21"
"1429","Rudolf Uhlen GmbH","Germany","Am Höfgen 13, 42781 Haan"," http://www.aschua-uhlen.de","4921291444","info@aschua-uhlen.de","Rudolf Uhlen GmbH
Postfach 17 22, 42761 Haan 
Am Höfgen 13, 42781 Haan
Germany","Anjali",NULL,"2025-06-25 14:13:21","2025-06-25 14:13:21"
"1430","RV INDUSTRIES LUCKNOW (INDIA) Inh. Prof. Ravindra Verma","INDIA","LUCKNOW"," http://www.rvindustries.co.in","8172800846","exportsales@rvindustries.co.in","RV INDUSTRIES LUCKNOW (INDIA) Inh. Prof. Ravindra Verma
Plot no 6, Ghram Goila Chinhut Industria, Dewa Road, Near Tata Moters Lucknow, 226019 Lucknow
India","Anjali",NULL,"2025-06-25 14:13:21","2025-06-25 14:13:21"
"1431","S. Konstantinidis & Co. Ltd.","Greece","PIRAEUS"," http://www.pharmamedihelp.gr","302104511090","info@pharmamedihelp.gr","S. Konstantinidis & Co. Ltd. 31 Afentouli Str., 18536 Piraeus Greece","Anjali",NULL,"2025-06-25 14:13:21","2025-06-25 14:13:21"
"1432","Sander Handels-GmbH & Co. KG","Germany","Kelterstr. 69, 73265 Dettingen/Teck"," http://www.sander-schuhe.com","497021980710","info@sander-schuhe.com","Sander Handels-GmbH & Co. KG
Postfach 14 29, 73222 Dettingen/Teck 
Kelterstr. 69, 73265 Dettingen/Teck
Germany","Anjali",NULL,"2025-06-25 14:13:21","2025-06-25 14:13:21"
"1433","Sänger GmbH","Germany","Zeller Weg 30, Ind. Gebiet Herdwiesen, 74575 Schrozberg"," http://www.sanger.de","49793572240","info@sanger.de","Sänger GmbH
Postfach 140, 74573 Schrozberg 
Zeller Weg 30, Ind. Gebiet Herdwiesen, 74575 Schrozberg
Germany","Anjali",NULL,"2025-06-25 14:13:21","2025-06-25 14:13:21"
"1434","Sanita Footwear A/S","Denmark","7400 Herning","sanitafootwear.dk ","4596605300","info@sanita.dk","Sanita Footwear A/S 
Guldborgvej 3.1 
7400 Herning, Denmark [incl. Greenland]","Anjali",NULL,"2025-06-25 14:13:21","2025-06-25 14:13:21"
"1435","Sano Deutschland GmbH","Germany","Bahnhofstr. 5, 83080 Oberaudorf"," http://www.sano-deutschland.de","498033308960","info@sano-treppensteiger.de","Sano Deutschland GmbH
Postfach 1114, 83076 Oberaudorf 
Bahnhofstr. 5, 83080 Oberaudorf
Germany","Anjali",NULL,"2025-06-25 14:13:21","2025-06-25 14:13:21"
"1436","Schake GmbH","Germany","Eckeseyer Str. 195, 58089 Hagen"," http://www.schake-gmbh.de","492331386060","info@schake-gmbh.de","Schake GmbH
Eckeseyer Str. 195, 58089 Hagen
Germany","Anjali",NULL,"2025-06-25 14:13:21","2025-06-25 14:13:21"
"1437","Schoutteten & Froidure S.A.S.","France","59560 Comines","sf-web.com ","33320390651","info@schoutt.com","Schoutteten & Froidure S.A.S. 
60 rue d' Armentières 
59560 Comines, France","Anjali",NULL,"2025-06-25 14:13:21","2025-06-25 14:13:21"
"1438","Schuberth GmbH","Germany","Stegelitzer Str. 12, 39126 Magdeburg"," http://www.schuberth.de","4939181060","arbeitsschutz@schuberth.de","Schuberth GmbH
Stegelitzer Str. 12, 39126 Magdeburg
Germany","Anjali",NULL,"2025-06-25 14:13:21","2025-06-25 14:13:21"
"1439","Schürr Schuhvertrieb GmbH","Germany","Lohbachstr. 19, 95126 Schwarzenbach"," http://www.schuerr.de","49928495010","info@schuerr.de","Schürr Schuhvertrieb GmbH
Postfach 1142, 95126 Schwarzenbach 
Lohbachstr. 19, 95126 Schwarzenbach
Germany","Anjali",NULL,"2025-06-25 14:13:21","2025-06-25 14:13:21"
"1440","Scilabub Limited","UK","9, Huntingdon Court, Huntingdon Way,Measham, DE12 7NQ Swadlincote"," http://www.scilabub.com","441530279996","info@scilabub.com","Scilabub Limited
9, Huntingdon Court, Huntingdon Way,Measham, DE12 7NQ Swadlincote
United Kingdom","Anjali",NULL,"2025-06-25 14:13:21","2025-06-25 14:13:21"
"1441","Scimitar International Partnership","Pakistan","51310 Sialkot","glovesmaker.com ","92523552402","rehan@pak-export.com","Scimitar International Partnership 
Mohabat Khan Industrial Town Adha, Deska Road 51310
51310 Sialkot, Pakistan
P.O. Box 2264
51310 Sialkot, Pakistan","Anjali",NULL,"2025-06-25 14:13:21","2025-06-25 14:13:21"
"1442","secova GmbH & Co. KG","Germany","Max-Born-Str. 1, 48431 Rheine"," http://www.secova.de","4959717937020","info@secova.de","secova GmbH & Co. KG
Max-Born-Str. 1, 48431 Rheine
Germany","Anjali",NULL,"2025-06-25 14:13:21","2025-06-25 14:13:21"
"1443","Shandong Xingyu Gloves Co Ltd.","CHINA"," China","xingyugloves.com ","865362580700","andy@xingyusafety.com","Shandong Xingyu Gloves Co Ltd. 
No. 2158 Yaoqian Road Chaoyang District 
261502 Gaomi, China, People's Republic of","Anjali",NULL,"2025-06-25 14:13:21","2025-06-25 14:13:21"
"1444","SHANGHAI INCHOI SAFETY PRODUCTS CO., LTD.","CHINA","SHANGHAI"," http://www.inchoi-safety.com","862157856619","info@inchoi-safety.com","SHANGHAI INCHOI SAFETY PRODUCTS CO., LTD.
Room 302, Building 1, No. 2369, East Rongle Road, Songjiang, 201613 Shanghai
China","Anjali",NULL,"2025-06-25 14:13:21","2025-06-25 14:13:21"
"1445","Shanghai Sino-Safe Co., Ltd.","CHINA"," China","sino-safe.com.cn ","862161324222","info@sino-safe.com.cn","Shanghai Sino-Safe Co., Ltd. 
19F, No. 450, The One Building CaoYang Rd.
200063 Shanghai, China, People's Republic of","Anjali",NULL,"2025-06-25 14:13:21","2025-06-25 14:13:21"
"1446","Shanghai V-Lion Industrial Co. Ltd.","CHINA"," China","v-lionsafety.com ","862166070773","info@v-lionsafety.com","Shanghai V-Lion Industrial Co. Ltd. 
Room 507-508, B2 Building, No 1158 Middle Luochuan Road
200072 Shanghai, China, People's Republic of","Anjali",NULL,"2025-06-25 14:13:21","2025-06-25 14:13:21"
"1447","SHE Solution Bergmann GmbH & Co. KG","Germany","Im Sundernkamp 2, 32130 Enger"," http://www.she-solution.de","4952249393850","info@she-solution.de","SHE Solution Bergmann GmbH & Co. KG
Im Sundernkamp 2, 32130 Enger
Germany","Anjali",NULL,"2025-06-25 14:13:21","2025-06-25 14:13:21"
"1448","Shenzhen Safety Enterprises Ltd.","China"," Guangdong","sinosafety.com ","8675582996761","safety@sinosafety.com","Shenzhen Safety Enterprises Ltd. 
2C/2D Gang An Bldg, No.19 Shihua Rd. Futian Tariff-free zone, Futian District
518038 Shenzhen, Guangdong, China, People's Republic of","Anjali",NULL,"2025-06-25 14:13:21","2025-06-25 14:13:21"
"1449","SHG PUR-Profile GmbH","Germany","Wecostr. 3, 53783 Eitorf"," http://www.knuffi.com","492243917410","info@knuffi.com","SHG PUR-Profile GmbH
Wecostr. 3, 53783 Eitorf
Germany","Anjali",NULL,"2025-06-25 14:13:21","2025-06-25 14:13:21"
"1450","SHIGEMATSU WORKS CO., LTD.","Japan","114-0024 Tokyo","sts-japan.com ","81369037529","eu@sts-japan.com","SHIGEMATSU WORKS CO., LTD. 
1-26-1 Nishigahara, Kita-Ku 
114-0024 Tokyo, Japan","Anjali",NULL,"2025-06-25 14:13:21","2025-06-25 14:13:21"
"1451","SHOWA International B.V.","Netherlands","1077XX Amsterdam","showagroup.com ","31880042100","marketing@showagroup.eu","SHOWA International B.V. 
WTC -Tower D Strawinskylaan 757
1077XX Amsterdam, Netherlands","Anjali",NULL,"2025-06-25 14:13:21","2025-06-25 14:13:21"
"1452","Sicherheitskonzepte Breuer GmbH","Germany","Straelen"," http://www.sicherheitskonzepte-breuer.com","4928349430100","info@sicherheitskonzepte-breuer.com","Broekhuysener Str. 40, 47638 Straelen Germany","Anjali",NULL,"2025-06-25 14:13:21","2025-06-25 14:13:21"
"1453","Sievin Jalkine Oy","Finland","85310 Sievi As.","sievi.com ","358848811","info@sievi.com","Sievin Jalkine Oy 
Korhosenkatu 24 
85310 Sievi As., Finland","Anjali",NULL,"2025-06-25 14:13:21","2025-06-25 14:13:21"
"1454","SIMONI SRL","Italy","Via Topazio 9, 58100 Grosseto"," http://www.rockhelmets.com","390564451271","info@simonisrl.net","SIMONI SRL
Via Topazio 9, 58100 Grosseto
Italy","Anjali",NULL,"2025-06-25 14:13:21","2025-06-25 14:13:21"
"1455","Sir Safety System S.p.A.","Italy","06081 Assisi (PG)","sirsafety.com ","390758043737","export@sirsafety.com","Sir Safety System S.p.A. 
Via dei Fornaciai, 9 
06081 Assisi (PG), Italy","Anjali",NULL,"2025-06-25 14:13:21","2025-06-25 14:13:21"
"1456","Skechers USA Deutschland GmbH","Germany","DIETZENBACH"," http://www.skechers.de","496074407220","germanyinfo@eu.skechers.com","Skechers USA Deutschland GmbH Waldstr. 66, 63128 Dietzenbach Germany","Anjali",NULL,"2025-06-25 14:13:21","2025-06-25 14:13:21"
"1457","SKYLOTEC GmbH","Germany","Im Mühlengrund 6-8, 56566 Neuwied"," http://www.skylotec.de","49263196800","info@skylotec.de","SKYLOTEC GmbH
Im Mühlengrund 6-8, 56566 Neuwied
Germany","Anjali",NULL,"2025-06-25 14:13:21","2025-06-25 14:13:21"
"1458","SMART GLOVE CORPORATION SDN BHD","Malaysia","42100 Selangor","smartglove.com.my ","60332916100","info@smartglove.com.my","SMART GLOVE CORPORATION SDN BHD 
Lot 6487, Batu 5 3/4 Sementa Jalan Kapar, Klang
42100 Selangor, Malaysia","Anjali",NULL,"2025-06-25 14:13:21","2025-06-25 14:13:21"
"1459","Society of Professional Rope Access Tech","USA","PA"," http://www.sprat.org","16109714850","info@sprat.org","Society of Professional Rope Access Tech
994 Old Eagle School Road, Suite 1019, 19087 Wayne
USA","Anjali",NULL,"2025-06-25 14:13:21","2025-06-25 14:13:21"
"1460","SOFOP Taliaplast France SAS","France","44550 Montoir de Bretagne","taliaplast.com ","33251166103","export@taliaplast.com","SOFOP Taliaplast France SAS 
3 RTE De la Torse RN 171
44550 Montoir de Bretagne, France
P.O. Box 46
44550 Montoir de Bretagne, France","Anjali",NULL,"2025-06-25 14:13:21","2025-06-25 14:13:21"
"1461","SoftClean GmbH","Germany","Kanalstr. 28, 23970 Wismar",,"493841229690","info@softclean.net","SoftClean GmbH
Kanalstr. 28, 23970 Wismar
Germany","Anjali",NULL,"2025-06-25 14:13:21","2025-06-25 14:13:21"
"1462","SOLIDUR SAS","FRANCE","BARENTON"," http://www.solidur.fr","33233594512","contact@solidur.fr","SOLIDUR SAS
190, rue Robert Schuman, 50720 Barenton
France","Anjali",NULL,"2025-06-25 14:13:21","2025-06-25 14:13:21"
"1463","SOMAIN SECURITE SAS","France","42501 Le Chambon Feugerolles","somain-securite.com ","33477405430","securite@somain.fr","SOMAIN SECURITE SAS 
Z.I. de Monterrat BP 13 
42501 Le Chambon Feugerolles, France","Anjali",NULL,"2025-06-25 14:13:21","2025-06-25 14:13:21"
"1464","Sparco S.p.A.","Italy","Via Leiní 524, 10088 Volpiano"," http://www.sparco.net","390112240911","info@sparco.it","Sparco S.p.A.
Via Leiní 524, 10088 Volpiano
Italy","Anjali",NULL,"2025-06-25 14:13:21","2025-06-25 14:13:21"
"1465","Spider King Group Shoes Co., Ltd.","China"," ZHEJIANG","spiderking.cn ","8657765028888","stephanie@spiderking.cn","Spider King Group Shoes Co., Ltd. 
No. A-888, Sunao Road Feiyun New Park
325207 Ruian City, ZHEJIANG, China, People's Republic of","Anjali",NULL,"2025-06-25 14:13:21","2025-06-25 14:13:21"
"1466","StolComfort GmbH","Germany","Liemer Weg 49, 32657 Lemgo"," http://www.stolcomfort.com","495261288970","info@stolcomfort.com","StolComfort GmbH
Liemer Weg 49, 32657 Lemgo
Germany","Anjali",NULL,"2025-06-25 14:13:21","2025-06-25 14:13:21"
"1467","Streamlight, Inc.","USA","PA","streamlight.com ","16106310600","cs@streamlight.com","Streamlight, Inc. 
30 Eagleville Road 
19403 Eagleville, PA, USA","Anjali",NULL,"2025-06-25 14:13:21","2025-06-25 14:13:21"
"1468","Sumirubber Malaysia SDN. BHD.","Malaysia"," Kedah","sumirubber.com ","6044213121","sumirubbermalaysia@gmail.com","Sumirubber Malaysia SDN. BHD. 
Lot 44, 45 & 86, Bakar Arang Industrial Estate
08000 Sungai Petani, Kedah, Malaysia","Anjali",NULL,"2025-06-25 14:13:21","2025-06-25 14:13:21"
"1469","Sundström Safety AB","Sweden","181 33 Lidingö","srsafety.com ","46856237000","info@srsafety.se","Sundström Safety AB 
Stockholmsvägen 33 
181 33 Lidingö, Sweden","Anjali",NULL,"2025-06-25 14:13:21","2025-06-25 14:13:21"
"1470","Super Glove Industry Co., Ltd.","THAILAND","BANGKOK"," http://www.supergloves.net","6628810823","sale1@superglove.co.th","Super Glove Industry Co., Ltd.
49 Mu14 Suwintavong Road, Nongjok, Kratoomrai, 10530 Bangkok
Thailand","Anjali",NULL,"2025-06-25 14:13:21","2025-06-25 14:13:21"
"1471","Super Gloves Industries Partnership","Pakistan","38900 Faisalabad","supergloves.net ","92412694806","sales@supergloves.net","Super Gloves Industries Partnership 
143-C Ghulam Muhammad Abad 
38900 Faisalabad, Pakistan","Anjali",NULL,"2025-06-25 14:13:21","2025-06-25 14:13:21"
"1472","Superhouse Ltd.","India","209 801 Unnao","superhousegroup.com ","5152829675","zeeshan@superhousegroup.com","Superhouse Ltd. 
B-6, Site-1, Industrial Area 
209 801 Unnao, India","Anjali",NULL,"2025-06-25 14:13:21","2025-06-25 14:13:21"
"1473","Swelock Asia Co., Ltd.","KOREA"," Korea","swelockasia.com ","82513033180","swelockasia@swelockasia.com","Swelock Asia Co., Ltd. 
14, Nakdong-daero 151 Obeon-gil Sasang-gu
617-825 Busan, Korea, Republic","Anjali",NULL,"2025-06-25 14:13:21","2025-06-25 14:13:21"
"1474","sycat IMS GmbH","GERMANY","HANNOVER"," http://www.sycat.com","49511848648200","kontakt@sycat.com","sycat IMS GmbH
Hollerithallee 9 A, 30419 Hannover
Germany","Anjali",NULL,"2025-06-25 14:13:21","2025-06-25 14:13:21"
"1475","Sympatex Technologies GmbH","Germany","Feringastr. 7A, 85774 Unterföhring"," http://www.sympatex.com","49899400580","info@sympatex.com","Sympatex Technologies GmbH
Feringastr. 7A, 85774 Unterföhring
Germany","Anjali",NULL,"2025-06-25 14:13:21","2025-06-25 14:13:21"
"1476","SYSTEM 5S Private Limited","India","600 049 Chennai","system5s.com ","4426174339","admin@system5s.com","SYSTEM 5S Private Limited 
B4 Sidco Industrial Estate 
600 049 Chennai, India","Anjali",NULL,"2025-06-25 14:13:21","2025-06-25 14:13:21"
"1477","T.ESS GmbH","Germany","Englschalkinger Str. 196, 81927 München"," http://www.tessworkwear.com","4989673597960",,"T.ESS GmbH
Englschalkinger Str. 196, 81927 München
Germany","Anjali",NULL,"2025-06-25 14:13:21","2025-06-25 14:13:21"
"1478","Tarasafe International Pvt. Ltd.","India","380008 Ahmedabad","tarasafe.in ","7922934032","basant@tarasafe.in","Tarasafe International Pvt. Ltd. 
6,7, 8, 9 Apparel Park, GIDC, SEZ, Khokhra, Gujarat
380008 Ahmedabad, India","Anjali",NULL,"2025-06-25 14:13:21","2025-06-25 14:13:21"
"1479","TBH GmbH","GERMANY","STRAUBENHARDT"," http://www.tbh.eu","49708294730","info@tbh.eu","TBH GmbH
Heinrich-Hertz-Str. 8, 75334 Straubenhardt
Germany","Anjali",NULL,"2025-06-25 14:13:21","2025-06-25 14:13:21"
"1480","TESIMAX-Altinger GmbH","Germany","Leimenstr. 2, 75242 Neuhausen"," http://www.tesimax.de","497234948590","info@tesimax.de","TESIMAX-Altinger GmbH
Leimenstr. 2, 75242 Neuhausen
Germany","Anjali",NULL,"2025-06-25 14:13:21","2025-06-25 14:13:21"
"1481","Thermopatch B.V.","Netherlands","Draaibrugweg 14-16, 1332 AD Almere"," http://www.thermopatch.com","31365491111","sales@thermopatch.nl","Thermopatch B.V.
P.O. Box 50052, 1305 AB Almere 
Draaibrugweg 14-16, 1332 AD Almere
Netherlands","Anjali",NULL,"2025-06-25 14:13:21","2025-06-25 14:13:21"
"1482","ThermoTex Nagel GmbH","Germany","Schutterstr. 14, 77746 Schutterwald"," http://www.thermo-tex.de","4978196160","info@thermo-tex.de","ThermoTex Nagel GmbH
Schutterstr. 14, 77746 Schutterwald
Germany","Anjali",NULL,"2025-06-25 14:13:21","2025-06-25 14:13:21"
"1483","THREE LIKE CO., LTD.","Japan"," Tokyo",,"81358126960","mikikoa@threelike.co.jp","THREE LIKE CO., LTD. 
3-7-3 Taito, Taito-Ku 
110-0016 Taio-Ku, Tokyo, Japan","Anjali",NULL,"2025-06-25 14:13:21","2025-06-25 14:13:21"
"1484","TOMA SRL","Italy","62010 Appignano (Macerata)","tomasrl.com ","39073357321","info@tomasrl.it","TOMA SRL 
Via Marconi 13 
62010 Appignano (Macerata), Italy","Anjali",NULL,"2025-06-25 14:13:21","2025-06-25 14:13:21"
"1485","TOP SAFE INTERNATIONAL CO., LTD","Marshall Islands","MAJURO"," http://www.topsafefootwear.com","6922473018",,"TOP SAFE INTERNATIONAL CO., LTD
Trust Company Complex, Ajeltake Road, Ajeltake Island, 96960 Majuro
Marshall Islands","Anjali",NULL,"2025-06-25 14:13:21","2025-06-25 14:13:21"
"1486","Towa Corporation Co., Ltd.","Japan","830-0047 Fukuoka","towagloves.com ","81942328863","egami@towaco.co.jp","Towa Corporation 
227 Tsubuku-Honmachi Kurume
830-0047 Fukuoka, Japan","Anjali",NULL,"2025-06-25 14:13:21","2025-06-25 14:13:21"
"1487","Tricorp bv","Netherlands","DP Rijen","tricorp.com/","31161295577","marketing@tricorp.com","P.O. Box 74, 5120 AB Rijen 
Stedenbaan 11, 5121 DP Rijen
Netherlands","Anjali",NULL,"2025-06-25 14:13:21","2025-06-25 14:13:21"
"1488","Trustworthy Safety Ltd.","CHINA"," China","trustworthy.com ","8641182696885","charlesq@163.com","Trustworthy Garments & Accessories Ltd. 
Rm1405, No.572, Zhongshan Road, Shahek 
116000 Dalian, China, People's Republic of","Anjali",NULL,"2025-06-25 14:13:21","2025-06-25 14:13:21"
"1489","TSI GmbH","Germany","Neuköllner Str. 4, 52068 Aachen"," http://www.tsi.com","49241523030","tsi.emea@tsi.com","TSI GmbH
Neuköllner Str. 4, 52068 Aachen
Germany","Anjali",NULL,"2025-06-25 14:13:21","2025-06-25 14:13:21"
"1490","Tuff Built EU s.r.o.","Czech Republic","Ohrazenicka 181, 533 52 Staré Hradište",,"420466653080",,"Tuff Built EU s.r.o.
Ohrazenicka 181, 533 52 Staré Hradište
Czech Republic","Anjali",NULL,"2025-06-25 14:13:21","2025-06-25 14:13:21"
"1491","TÜV Rheinland AG","Germany","Am Grauen Stein 1, 51105 Köln"," http://www.tuv.com","492218060","messe@de.tuv.com","TÜV Rheinland AG
Am Grauen Stein 1, 51105 Köln
Germany","Anjali",NULL,"2025-06-25 14:13:21","2025-06-25 14:13:21"
"1492","U. GROUP S.r.l.","Italy","28040 Paruzzaro Novara","u-power.it ","390322539401","info@u-power.it","U. GROUP S.r.l. 
Via Borgomanero 50 
28040 Paruzzaro Novara, Italy","Anjali",NULL,"2025-06-25 14:13:21","2025-06-25 14:13:21"
"1493","Unicare Emergency Equipment Pvt. Ltd.","India","400 028 Mumbai","unicaresafetyequipment.com ","2224227198","wlp@unicaremail.com","Unicare Emergency Equipment Pvt. Ltd. 
Leslico House, 2nd Floor Prof. V.S.Agashe Road, Dadar-West
400 028 Mumbai, India","Anjali",NULL,"2025-06-25 14:13:21","2025-06-25 14:13:21"
"1494","Uniphos Envirotronic Pvt. Ltd.","INDIA","DIST. VALSAD, GUJARAT"," http://www.uniphos-she.com","9909994042","gasdetection@uniphos-envirotronic.com","Uniphos Envirotronic Pvt. Ltd.
P.O. Nahuli, Tal. Umbergaon, Vapi, 396108 Dist. Valsad, Gujarat
India","Anjali",NULL,"2025-06-25 14:13:21","2025-06-25 14:13:21"
"1495","Univet s.r.l.","Italy","25086 Rezzato (BS)","univet-optic.com ","390302499411","info@univet.it","Univet s.r.l. 
Via G. Prati, 87 
25086 Rezzato (BS), Italy","Anjali",NULL,"2025-06-25 14:13:21","2025-06-25 14:13:21"
"1496","Usang Industrial Co., Ltd.","Taiwan","111 Taipei","usang.com.tw ","886228331147","sales@usang.com.tw","Usang Industrial Co., Ltd. 
7F., No. 35, Dexing W. Rd., Shilin Dist.
111 Taipei, Taiwan","Anjali",NULL,"2025-06-25 14:13:21","2025-06-25 14:13:21"
"1497","UVEX ARBEITSSCHUTZ GmbH","Germany","Würzburger Str. 181-189, 90766 Fürth"," http://www.uvex-safety.de","4991197360","safety@uvex.de","UVEX ARBEITSSCHUTZ GmbH
Würzburger Str. 181-189, 90766 Fürth
Germany","Anjali",NULL,"2025-06-25 14:13:21","2025-06-25 14:13:21"
"1498","V&Q Manufacturing Corporation Ltd.","CHINA"," China","chinavqmc.com ","862787680925","jackyj@chinavqmc.com","V&Q Manufacturing Corporation Ltd. 
No. B1614 Optical Valley Time Square Guanshandadao Hongshan District
430074 Wuhan, China, People's Republic of","Anjali",NULL,"2025-06-25 14:13:21","2025-06-25 14:13:21"
"1499","Venus Safety and Health Pvt. Ltd.","India"," MH","venusohs.com ","2227692646","info@venusohs.com","Venus Safety and Health Pvt. Ltd. 
W-284, MIDC Industrial Area Rabale
400701 Navi Mumbai, MH, India","Anjali",NULL,"2025-06-25 14:13:21","2025-06-25 14:13:21"
"1500","Verein Deutscher Gewerbeaufsichts- beamter e.V. (VDGAB)","Germany","Große Steinernetischstr. 4, 39104 Magdeburg"," http://www.vdgab.de","491757584078","info@vdgab.de","Verein Deutscher Gewerbeaufsichts- beamter e.V. (VDGAB)
Große Steinernetischstr. 4, 39104 Magdeburg
Germany","Anjali",NULL,"2025-06-25 14:13:21","2025-06-25 14:13:21"
"1501","via traffic controlling gmbh","Germany","Campusallee 1, 51379 Leverkusen"," http://www.viatraffic.de","492171504930",,"via traffic controlling gmbh
Campusallee 1, 51379 Leverkusen
Germany","Anjali",NULL,"2025-06-25 14:13:21","2025-06-25 14:13:21"
"1502","Victoire et Compagnie Sarl","France","59420 Mouvaux","surflex-en812.com ","33972459960","contact@surflex.eu","Victoire et Compagnie Sarl 
2 Ter Place de la Paix 
59420 Mouvaux, France","Anjali",NULL,"2025-06-25 14:13:21","2025-06-25 14:13:21"
"1503","Viking Life-Saving Equipment A/S","Denmark","6710 Esbjerg V","viking-life.com ","4576118100","viking@viking-life.com","Viking Life-Saving Equipment A/S 
Saedding Ringvej 13 
6710 Esbjerg V, Denmark [incl. Greenland]","Anjali",NULL,"2025-06-25 14:13:21","2025-06-25 14:13:21"
"1504","Vinit Gloves Manufacturing Pvt. Ltd.","India","700 015 Kolkata","vinitgloves.com ","3323234400","info@vinitgloves.com","Vinit Gloves Manufacturing Pvt. Ltd. 
P-44, Udayan Industrial Estate 3, Pagladanga Road
700 015 Kolkata, India","Anjali",NULL,"2025-06-25 14:13:21","2025-06-25 14:13:21"
"1505","VISCO LAB Pvt. Ltd.","Korea","401, Daeya Bldg., 13, Daeya 1-Ro,, 15888 Gunpo-Si, Gyeonggi-do"," http://www.viscolab.co.kr","827050013756",,"VISCO LAB Pvt. Ltd.
401, Daeya Bldg., 13, Daeya 1-Ro,, 15888 Gunpo-Si, Gyeonggi-do
Korea, Republic","Anjali",NULL,"2025-06-25 14:13:21","2025-06-25 14:13:21"
"1506","VM Footwear s.r.o.","CZECH REPUBLIC","STRÁŽNICE"," http://www.vmfootwear.cz","420702163929","info@vmfootwear.cz","VM Footwear s.r.o.
Úprkova 683, 69662 Strážnice
Czechia","Anjali",NULL,"2025-06-25 14:13:21","2025-06-25 14:13:21"
"1507","W. L. Gore & Associates GmbH","Germany","Hermann-Oberth-Str. 24, 85640 Putzbrunn"," http://www.gore-workwear.com","498946120","serviceworkwear_de@wlgore.com","W. L. Gore & Associates GmbH
Hermann-Oberth-Str. 24, 85640 Putzbrunn
Germany","Anjali",NULL,"2025-06-25 14:13:21","2025-06-25 14:13:21"
"1508","W.Söhngen GmbH","Germany","Platter Str. 84, 65232 Taunusstein"," http://www.soehngen.com","4961288730","info@soehngen.com","W.Söhngen GmbH
Postfach 1554, 65223 Taunusstein 
Platter Str. 84, 65232 Taunusstein
Germany","Anjali",NULL,"2025-06-25 14:13:21","2025-06-25 14:13:21"
"1509","W+R INDUSTRY GmbH","Germany","Carl-Zeiss-Str. 5, 72555 Metzingen"," http://www.wr24.de","49712396740","info@wr24.de","W+R GmbH
Carl-Zeiss-Str. 5, 72555 Metzingen
Germany","Anjali",NULL,"2025-06-25 14:13:21","2025-06-25 14:13:21"
"1510","Watex Schutz-Bekleidungs GmbH","Germany","Zum Eisenhammer 25, 34431 Marsberg"," http://www.watex.de","49299297190","info@watex.de","Watex Schutz-Bekleidungs GmbH
Postfach 11 22, 34418 Marsberg 
Zum Eisenhammer 25, 34431 Marsberg
Germany","Anjali",NULL,"2025-06-25 14:13:21","2025-06-25 14:13:21"
"1511","WEKA MEDIA GmbH & Co. KG","Germany","Römerstr. 4, 86438 Kissing"," http://www.weka.de","498233230","info@weka.de","WEKA MEDIA GmbH & Co. KG
Römerstr. 4, 86438 Kissing
Germany","Anjali",NULL,"2025-06-25 14:13:21","2025-06-25 14:13:21"
"1512","Werksitz GmbH","Germany","Telefunkenstr. 9, 97475 Zeil"," http://www.werksitz.de","49952483450","info@werksitz.de","Werksitz GmbH
Telefunkenstr. 9, 97475 Zeil
Germany","Anjali",NULL,"2025-06-25 14:13:21","2025-06-25 14:13:21"
"1513","Werner Dorsch GmbH","GERMANY","DIEBURG"," http://wedo.de","4960719670","wedo@wedo.de","Werner Dorsch GmbH
Dieselstr. 13, 64807 Dieburg
Germany","Anjali",NULL,"2025-06-25 14:13:21","2025-06-25 14:13:21"
"1514","White Pak Leather Industries (Partnership)","PAKISTAN","SIALKOT"," http://WWW.whitepak.com","92524362121","info@whitepak.com","White Pak Leather Industries (Partnership)
P.O. Box 2112, 51310 Sialkot 
Wahid Road Malkey Kalan, 51310 Sialkot
Pakistan","Anjali",NULL,"2025-06-25 14:13:21","2025-06-25 14:13:21"
"1515","Win Win Spectacles Co., Ltd.","Taiwan","718 Tainan Hsien","winwinsafety.com ","88665950198","winsafe@ms22.hinet.net","Win Win Spectacles Co., Ltd. 
No. 271 Bao Dong Road, Kuanmiao 
718 Tainan Hsien, Taiwan","Anjali",NULL,"2025-06-25 14:13:21","2025-06-25 14:13:21"
"1516","Witte + Sutor GmbH","Germany","Steinberger Str. 6, 71540 Murrhardt"," http://www.acculux.de","49719292920","info@acculux.de","Witte + Sutor GmbH
Postfach 13 54, 71536 Murrhardt 
Steinberger Str. 6, 71540 Murrhardt
Germany","Anjali",NULL,"2025-06-25 14:13:21","2025-06-25 14:13:21"
"1517","Wolfgang Mauser Schutzbekleidung GmbH","GERMANY","BERGHEIM"," http://www.asatex.de","49227147770","info@asatex.de","Wolfgang Mauser Schutzbekleidung GmbH
August-Borsig-Str. 2, 50126 Bergheim
Germany","Anjali",NULL,"2025-06-25 14:13:21","2025-06-25 14:13:21"
"1518","wolk AG","Germany","Am Kiesberg 12-14, 42117 Wuppertal"," http://www.wolk.de","4920224350","info@wolk.de","wolk AG
Am Kiesberg 12-14, 42117 Wuppertal
Germany","Anjali",NULL,"2025-06-25 14:13:21","2025-06-25 14:13:21"
"1519","WorkWear Group Pty. Ltd.","AUSTRALIA","PORT MELBOURNE VIC"," http://WWW.WORKWEARGROUP.COM.AU","61437231148","marketing.indirect@workweargroupcom.au","WorkWear Group Pty. Ltd.
Level 1, 187 Todd Road, 3207 Port Melbourne VIC
Australia","Anjali",NULL,"2025-06-25 14:13:21","2025-06-25 14:13:21"
"1520","Würth Industrie Service GmbH & Co. KG","Germany","Industriepark Würth, Drillberg, 97980 Bad Mergentheim"," http://www.wuerth-industrie.com","497931910","info@wuerth-industrie.com","Würth Industrie Service GmbH & Co. KG
Industriepark Würth, Drillberg, 97980 Bad Mergentheim
Germany","Anjali",NULL,"2025-06-25 14:13:21","2025-06-25 14:13:21"
"1521","Würth MODYF GmbH & Co. KG","Germany","Benzstr. 7, 74653 Künzelsau/ Gaisbach"," http://www.modyf.de","49794054800","info@modyf.de","Würth MODYF GmbH & Co. KG
Benzstr. 7, 74653 Künzelsau/ Gaisbach
Germany","Anjali",NULL,"2025-06-25 14:13:21","2025-06-25 14:13:21"
"1522","Wuxi Fangqian Plastic Working Glove Co., Ltd.","CHINA"," China","glove-in-china.com ","8651085164102","feiwb@glove-in-china.com","Wuxi Fangqian Plastic Working Glove Corp. Inc. 
1907, Taihu Mingzhu Fazhan Dasha No. 1890 West of Taihu Road
214000 Wuxi, China, People's Republic of","Anjali",NULL,"2025-06-25 14:13:21","2025-06-25 14:13:21"
"1523","WUXI XINYA SAFETY PRODUCTS CO., LTD.","China"," Jiangsu","xinyasafety.com ","8651088206196","shoesales@xinya-safetech.com","WUXI XINYA SAFETY PRODUCTS CO., LTD. 
10F, Building A, JEWEL International Centre, No. 20, Dongting Rd. Central
214101 Wuxi, Jiangsu, China, People's Republic of
P.O. Box 1001
214101 Wuxi, Jiangsu, China, People's Republic of","Anjali",NULL,"2025-06-25 14:13:21","2025-06-25 14:13:21"
"1524","Xiamen Safever Protective Products Co. Ltd.","CHINA"," China","chinagloves.cn ","865928268081","sales@chinagloves.cn","Xiamen Safever Protective Products Co. Ltd. 
4/F, No. 170, Tapu East Road, Siming District
361008 Xiamen, China, People's Republic of","Anjali",NULL,"2025-06-25 14:13:21","2025-06-25 14:13:21"
"1525","YILMAZ AYAKKABI SAN. VE TIC. LTD. STI.","TURKEY","ISTANBUL"," http://www.yilmazayakkabi.com","902128868512","info@yilmazayakkabi.com","YILMAZ AYAKKABI SAN. VE TIC. LTD. STI.
Akcaburgaz Mah. 58. Sokak No: 5, Esenyurt, 34500 Istanbul
Turkey","Anjali",NULL,"2025-06-25 14:13:21","2025-06-25 14:13:21"
"1526","Yoke Industrial Corp.","Taiwan","407 Taichung","yoke.net ","886423508088","info@mail.yoke.net","Yoke Industrial Corp. 
No. 39, 33rd Road, Taichung Industrial Park
407 Taichung, Taiwan","Anjali",NULL,"2025-06-25 14:13:21","2025-06-25 14:13:21"
"1527","Yotsugi Co., Ltd.","Japan","104-0031 Tokyo","yotsugi.co.jp ","81335635616","katsuya_hokimoto@yotsugi.co.jp","Yotsugi Co., Ltd. 
2-6-13, Kyobashi, Chuou-ku 
104-0031 Tokyo, Japan","Anjali",NULL,"2025-06-25 14:13:21","2025-06-25 14:13:21"
"1528","Zarges GmbH","Germany","Zargesstr. 7, 82362 Weilheim"," http://www.zarges.de","498816870","zarges@zarges.de","Zarges GmbH
Postfach 16 30, 82360 Weilheim 
Zargesstr. 7, 82362 Weilheim
Germany","Anjali",NULL,"2025-06-25 14:13:21","2025-06-25 14:13:21"
"1529","Zero3 s.r.l.","ITALY","GHEDI (BS)"," http://www.worik.it","390309030144","info@worik.it","Zero3 s.r.l.
Via Tutto Ghedi, 9, 25016 Ghedi (BS)
Italy","Anjali",NULL,"2025-06-25 14:13:21","2025-06-25 14:13:21"
"1530","Zhejiang Baisu Shoes Co., Ltd.","CHINA"," China","baisu100.com ","8657758807531","baisu@baisu100.com","Zhejiang Baisu Shoes Co., Ltd. 
Dongxin Industrial Area, Xincheng 
325206 Ruian, China, People's Republic of","Anjali",NULL,"2025-06-25 14:13:21","2025-06-25 14:13:21"
"1531","Zhejiang Haina Shoes Co., Ltd.","CHINA"," China","hainashoes.com ","8657758805113","don@hainashoes.com","Zhejiang Haina Shoes Co., Ltd. 
Dongxin Industrial Zone, Xincheng Street
325206 Ruian, China, People's Republic of","Anjali",NULL,"2025-06-25 14:13:21","2025-06-25 14:13:21"
"1532","Zhejiang YGM Technology Co., Ltd.","CHINA"," China","cnygm.com ","8657688123805","ygm888@cnygm.com","Zhejiang YGM Technology Co., Ltd. 
No. 2355, Haifeng Road Binhai Industrial Zone, B Zone
318014 Taizhou, China, People's Republic of","Anjali",NULL,"2025-06-25 14:13:21","2025-06-25 14:13:21"
"1533","Ziegler Arbeitsschutz GmbH","Germany","In den Waldäckern 41, 75417 Mühlacker"," http://www.ziegler-metallgewebe.com","497041810750","info@ziegler-metallgewebe.com","Ziegler Arbeitsschutz GmbH
In den Waldäckern 41, 75417 Mühlacker
Germany","Anjali",NULL,"2025-06-25 14:13:21","2025-06-25 14:13:21"
"1534","Ziegler Textil GmbH","Germany","Hinter-Winterbach 1, 77794 Lautenbach"," http://www.ziegler-textil.de","497802700030","info@ziegler-textil.de","Ziegler Textil GmbH
Hinter-Winterbach 1, 77794 Lautenbach
Germany","Anjali",NULL,"2025-06-25 14:13:21","2025-06-25 14:13:21"
"1535","ZOLL Medical Deutschland GmbH","Germany","Köln","zoll.com/de","49223687870","info@zollmedical.de","Emil-Hoffmann-Straße 13, 50996 Köln, Germany","Anjali",NULL,"2025-06-25 14:13:21","2025-06-25 14:13:21"
"1536","ZVG Zellstoff-Vertriebs-GmbH & Co. KG","Germany","Urbacher Str. 4 + 5, 53842 Troisdorf",,"4922414840","info@zvg-troisdorf.de","ZVG Zellstoff-Vertriebs-GmbH & Co. KG
Urbacher Str. 4 + 5, 53842 Troisdorf
Germany","Anjali",NULL,"2025-06-25 14:13:21","2025-06-25 14:13:21"
"1537","Arun Tyagi","India","LUCKNOW","expostandzone.local/","9808875933","hr21@triumfo.de",NULL,"50","50","2025-06-25 15:41:16","2025-06-25 15:41:16"
